,network_code,receiver_code,receiver_type,receiver_latitude,receiver_longitude,receiver_elevation_m,p_arrival_sample,p_status,p_weight,p_travel_sec,s_arrival_sample,s_status,s_weight,source_id,source_origin_time,source_origin_uncertainty_sec,source_latitude,source_longitude,source_error_sec,source_gap_deg,source_horizontal_uncertainty_km,source_depth_km,source_depth_uncertainty_km,source_magnitude,source_magnitude_type,source_magnitude_author,source_mechanism_strike_dip_rake,source_distance_deg,source_distance_km,back_azimuth_deg,snr_db,coda_end_sample,trace_start_time,trace_category,trace_name
531,AK,WAT2,BH,62.9628,-148.5855,1366,500,manual,1,12.86999989,1360,manual,0.56,ak11245554,07:08.0,1.24,63.4814,-147.7696,0.61,64,2.991,10.4,0.2,2.5,ml,None,None,0.63848,70.87,35.731,[58.90000153 59.90000153 57.79999924],[[2670.]],07:15.9,earthquake_local,WAT2.AK_20140428230715_EV
532,PB,B087,HH,33.4955,-116.602667,1139,691,autopicker,0.83,13.56999969,1660,autopicker,0.69,ci37151247,36:34.5,None,34.0235,-117.22833,None,None,None,13.44,None,1.64,ml,None,None,0.7426,82.4,315.3,[22.10000038 28.39999962 23.70000076],[[2376.]],36:41.1,earthquake_local,B087.PB_20150424223640_EV
533,AU,AS31,BH,-23.666,133.904007,607,,,,,,,,,,,,,,,,,,,,,,,,,,,1/15/18 21:53,noise,AS31.AU_20180115215354_NO
534,NC,GDXB,HH,38.807968,-122.795303,939,600,manual,0.83,0.550000012,644,manual,0.57,nc71524340,17:06.4,,38.808,-122.8023333,0.07,56,0.2,2.24,0.23,1.15,md,NC,None,0.00631,0.61,272.2,[33.90000153 32.         29.10000038],[[1376.]],17:00.9,earthquake_local,GDXB.NC_20110215211659_EV
535,BK,BL67,HH,37.87492,-122.24318,736,,,,,,,,,,,,,,,,,,,,,,,,,,,11/8/14 14:14,noise,BL67.BK_201411081414_NO
536,BC,PIX,HH,31.562901,-113.4599,77.8,,,,,,,,,,,,,,,,,,,,,,,,,,,1/15/18 23:41,noise,PIX.BC_20180115234100_NO
537,AK,CAST,BH,63.4188,-152.0844,611,698.2,autopicker,0.85,17.36199951,1995.2,autopicker,0.73,ak16353545,08:09.7,None,62.9029,-151.2973,None,None,None,104.5,None,1.6,ml,None,None,0.626,69.86,145.79,[29.         28.29999924 24.20000076],[[3199.]],08:20.1,earthquake_local,CAST.AK_20170719070819_EV
538,AK,WRH,BH,64.4716,-148.0918,329,602.2,autopicker,0.67,7.271999836,1127.2,autopicker,0.76,ak15895300,27:48.2,None,64.7648,-147.5466,None,None,None,11.4,None,1.2,ml,None,None,0.375,41.82,38.78,[15.10000038 17.20000076 19.70000076],[[2407.]],27:49.5,earthquake_local,WRH.AK_20170503232748_EV
539,AK,CHUM,BH,63.8827,-152.3152,217,600,manual,0.8,14.86600018,1626.3,manual,0.56,ak15254750,49:58.4,,63.5152,-150.82,0.48,,0,12,0.1,2.2,ml,None,None,0.758,84.54,119.69,[46.79999924 39.         35.        ],[[3100.]],50:07.3,earthquake_local,CHUM.AK_20170211075006_EV
540,AU,PSAB1,BH,-21.568909,119.821869,317,,,,,,,,,,,,,,,,,,,,,,,,,,,1/16/18 10:58,noise,PSAB1.AU_20180116105800_NO
541,HW,DDRF,BH,46.4911,-119.0595,233,500,manual,0.95,3.650000095,782,manual,0.93,uw10825043,02:54.7,,46.4065,-119.2653333,0.08,131,0.18,1.43,0.64,1.6,md,UW,None,0.1656,18.4,239.1,[50.70000076 45.29999924 41.09999847],[[1332.]],02:53.3,earthquake_local,DDRF.HW_20110907110252_EV
542,AK,CUT,BH,62.4058,-150.2625,574,700,manual,0.64,21.04700089,2323.3,manual,0.73,ak15852116,21:39.2,None,63.2196,-150.4665,None,None,None,124.5,None,2.2,ml,None,None,0.819,91.3,353.38,[27.70000076 28.60000038 21.5       ],[[3199.]],21:53.2,earthquake_local,CUT.AK_20170501102152_EV
543,PB,B067,EH,36.765,-121.5655,126.2,600,manual,0.66,1.549999952,715,manual,0.58,nc72350556,32:59.1,None,36.78967,-121.4865,None,None,None,3.64,None,0.54,md,None,None,0.06847,7.57,68.7,[29.10000038 30.10000038 32.5       ],[[1161.]],32:54.7,earthquake_local,B067.PB_20141121043253_EV
544,PB,B932,EH,40.275,-124.2212,52,800,manual,0.66,4.25,1147,manual,0.53,nc72224126,53:14.3,None,40.304,-124.4505,None,None,None,9.32,None,1.54,md,None,None,0.1775,19.76,279.4,[41.79999924 42.09999847 34.90000153],[[1775.]],53:10.6,earthquake_local,B932.PB_20140519135309_EV
545,PB,B918,EH,35.9357,-117.6017,1042.6,900,manual,0.62,7.760000229,1462,manual,0.62,ci15228657,29:30.9,,35.8653333,-118.1033333,0.09,51,0.26,10.76,0.68,1.08,ml,CI,None,0.4133,45.95,260,[24.79999924 26.10000038 23.10000038],[[2206.]],29:29.7,earthquake_local,B918.PB_20121012122928_EV
546,IU,AFI,BH,-13.9085,-171.7827,706,,,,,,,,,,,,,,,,,,,,,,,,,,,1/15/18 20:01,noise,AFI.IU_20180115200112_NO
547,TA,O20K,BH,60.0815,-152.624,915,500,manual,0.54,14.67099953,1682,manual,0.65,ak18699270,39:02.6,None,60.3524,-152.4456,None,None,None,102.2,None,1.5,ml,None,None,0.285,31.76,18.19,[11.30000019 -0.89999998  1.79999995],[[2068.]],39:12.3,earthquake_local,O20K.TA_20180316033911_EV
548,GS,KAN08,HH,37.22672,-97.970947,375,500,manual,0.62,4.320000172,805,manual,0.56,ismpkansas70092108,14:08.3,None,37.08217,-97.79233,None,None,None,5.32,None,1.91,ml,None,None,0.2029,22.56,135.4,[33.70000076 36.79999924 24.79999924],[[2220.]],14:07.7,earthquake_local,KAN08.GS_20150410061406_EV
549,PT,MLOA,HH,19.5359,-155.5764,3399,500,manual,0.55,9.350000381,1186,manual,0.55,hv60974141,59:49.0,None,19.33467,-155.12117,None,None,None,5.25,None,1.49,md,None,None,0.474,52.74,115.2,[15.19999981 13.19999981  4.9000001 ],[[3199.]],59:53.3,earthquake_local,MLOA.PT_20150706165952_EV
550,NN,YER,HH,38.985199,-119.240601,1857,800,manual,0.95,15.57219982,1952.51,manual,0.93,nn00583790,50:06.1,None,38.2716,-118.7843,None,None,None,5.8,None,1.6,ml,None,None,0.798,88.62,153.6,[31.89999962 30.79999924 27.20000076],[[2879.]],50:13.7,earthquake_local,YER.NN_20170331115012_EV
551,AZ,TRO,HH,33.5234,-116.4257,2628,400,manual,0.61,2.25,561,manual,0.58,ci37839631,42:26.2,None,33.54667,-116.433,None,None,None,11.29,None,0.55,ml,None,None,0.02399,2.67,345.3,[7.5999999 6.0999999 7.9000001],[[1444.]],42:24.5,earthquake_local,TRO.AZ_20171227184223_EV
552,PB,B058,EH,36.7995,-121.5808,114.2,500,manual,0.58,3.809999943,784,manual,0.58,nc72172031,58:17.2,None,36.7325,-121.36117,None,None,None,6.13,None,0.68,md,None,None,0.1883,20.97,110.8,[18.29999924 19.20000076 15.19999981],[[2136.]],58:16.0,earthquake_local,B058.PB_20140221095814_EV
553,AZ,BZN,HH,33.4915,-116.667,1301,797,autopicker,0.75,2.680000067,968,autopicker,0.86,ci37813255,13:29.8,None,33.43783,-116.72167,None,None,None,12.39,None,1.39,ml,None,None,0.07038,7.83,220.3,[3.79999995 5.69999981 1.79999995],[[1435.]],13:24.5,earthquake_local,BZN.AZ_20171117031323_EV
554,PB,B082,EH,33.598182,-116.596005,1374.8,400,manual,0.6,12.09000015,1273,manual,0.6,ci10876085,42:13.9,,34.036,-117.1931667,0.18,126,0.7,5.88,None,1.2,mh,CI,None,0.6617,73.59,311.3,[15.30000019 16.5         4.19999981],[[3199.]],42:21.9,earthquake_local,B082.PB_20110118204220_EV
555,GO,KZRT,HH,41.3866,44.398701,723,600,manual,0.5,26.84000015,2468,autopicker,0.64,603374646,48:33.4,1.38,42.314,45.7219,1.0419,86.438,5.38942,10.13,None,2,ml,None,None,1.35,150.61,227.3,[17.29999924 16.70000076 13.69999981],[[5900.]],48:54.2,earthquake_local,KZRT.GO_20130623034853_EV
556,TA,833A,HH,28.3236,-99.3939,171,,,,,,,,,,,,,,,,,,,,,,,,,,,11/12/15 3:15,noise,833A.TA_201511120315_NO
557,TX,PB21,HH,31.341918,-103.06216,753,,,,,,,,,,,,,,,,,,,,,,,,,,,3/16/20 3:51,noise,PB21.TX_20200316035142_NO
558,PB,B082,EH,33.598182,-116.596005,1374.8,500,manual,0.67,5.960000038,899,manual,0.58,ci15085052,41:54.3,,33.4735,-116.9246667,0.19,71,0.32,9.68,1.27,0.52,ml,CI,None,0.3014,33.51,245.4,[14.69999981 15.89999962 12.69999981],[[2021.]],41:55.3,earthquake_local,B082.PB_20111211124154_EV
559,NC,LRD,HH,40.46504,-121.46344,2325,,,,,,,,,,,,,,,,,,,,,,,,,,,8/27/18 11:08,noise,LRD.NC_201808271108_NO
560,TA,G30M,BH,66.9808,-136.2216,739,700,automatic,0.1,11.11400032,1558.7,manual,0.87,ak19563840,58:08.9,None,66.428,-135.7384,None,None,None,18.8,None,3.2,ml,None,None,0.585,64.94,161.15,[73.19999695 68.90000153 69.19999695],[[3021.]],58:13.0,earthquake_local,G30M.TA_20180515215813_EV
561,GS,MT02,HH,46.85853,-112.88047,1671.8,700,manual,0.7,5.130000114,1048,manual,0.56,mb80258279,32:39.1,None,46.8625,-112.53183,None,None,None,13.38,None,1.06,ml,None,None,0.239,26.59,89.2,[34.09999847 41.90000153 36.59999847],[[1780.]],32:37.2,earthquake_local,MT02.GS_20170929133236_EV
562,IM,NV11,SH,38.4328,-118.153,1585,,,,,,,,,,,,,,,,,,,,,,,,,,,1/15/18 8:44,noise,NV11.IM_20180115084418_NO
563,AZ,CRY,HH,33.5654,-116.7373,1128,500,manual,0.64,1.980000019,647,autopicker,0.81,ci37313215,28:35.4,,33.4988333,-116.7886667,0.11,38,0.14,5.86,0.52,0.91,ml,CI,None,0.07905,8.79,212.7,[21.39999962 25.39999962 20.60000038],[[1108.]],28:32.4,earthquake_local,CRY.AZ_20160301212831_EV
564,SN,TYM,EH,37.144,-116.7217,1457,500,manual,0.95,15.62938976,1590.641,manual,0,nn00582132,54:48.3,None,37.806,-116.1161,None,None,None,0,None,0.3,ml,None,None,0.818,90.93,36.17,[17.70000076 13.5        15.39999962],[[2977.]],54:58.9,earthquake_local,TYM.SN_20170315045457_EV
565,BC,CBX,HH,32.3131,-116.6636,1250,,,,,,,,,,,,,,,,,,,,,,,,,,,1/16/18 18:14,noise,CBX.BC_20180116181406_NO
566,AK,BWN,BH,64.1732,-149.2991,356,800,manual,0.5,21.20999908,2327,manual,0.5,13786593,57:39.5,0.51,63.6556,-149.964,1.2076,24.983,4.37909,139.14,None,4.2,mb,None,None,0.56,66.29,22.8,[47.5        47.         45.70000076],[[5472.]],57:52.7,earthquake_local,BWN.AK_20090920115751_EV
567,PB,B093,HH,33.59369,-116.7641,1229.6,828,autopicker,0.93,3.829999924,1108,autopicker,0.56,ci37766632,16:54.3,None,33.7195,-116.8295,None,None,None,16.58,None,1.65,ml,None,None,0.1368,15.22,336.6,[19.39999962  0.80000001 45.29999924],[[1605.]],16:49.8,earthquake_local,B093.PB_20161218071648_EV
568,PB,B082,EH,33.598182,-116.596005,1374.8,400,manual,0.7,7.53000021,952,manual,0.6,ci10838021,45:02.2,,33.9851667,-116.6818333,0.15,38,0.24,16.08,0.64,1.44,ml,CI,None,0.3925,43.65,349.5,[34.79999924 33.         31.5       ],[[1807.]],45:05.7,earthquake_local,B082.PB_20101112194504_EV
569,NC,GDXB,HH,38.807968,-122.795303,939,403,autopicker,0.88,0.5,453,autopicker,0.86,nc72117315,19:24.6,None,38.804,-122.77367,None,None,None,1.08,None,0.52,md,None,None,0.01712,1.93,104,[30.10000038 32.20000076 28.89999962],[[1006.]],19:21.1,earthquake_local,GDXB.NC_20131208101920_EV
570,PB,B918,EH,35.9357,-117.6017,1042.6,800,manual,0.6,9.25,1507,manual,0.55,ci11365386,04:28.7,None,36.40167,-117.84833,None,None,None,0.11,None,1.1,ml,None,None,0.506,56.27,336.8,[18.29999924 19.         18.29999924],[[2421.]],04:30.0,earthquake_local,B918.PB_20130916160428_EV
571,CI,CHF,HH,34.333408,-118.025848,1594,,,,,,,,,,,,,,,,,,,,,,,,,,,1/15/18 17:46,noise,CHF.CI_20180115174606_NO
572,II,ABPO,BH,-19.018,47.229,1528,,,,,,,,,,,,,,,,,,,,,,,,,,,1/15/18 1:29,noise,ABPO.II_20180115012936_NO
573,CI,LUC2,HH,34.45638,-116.96423,886,500,automatic,0,19.07999992,1891,automatic,0.8,ci11407970,21:08.6,None,33.5015,-116.4773,None,None,None,8,None,3.1,ml,None,None,1.037,115.11,157.3,[34.09999847 33.5        21.5       ],[[4061.]],21:22.7,earthquake_local,LUC2.CI_20131231092122_EV
574,NC,CMOB,HN,37.81042,-121.80272,743,,,,,,,,,,,,,,,,,,,,,,,,,,,4/9/14 22:36,noise,CMOB.NC_201404092236_NO
575,NC,KOM,HN,41.27872,-123.45315,1844,,,,,,,,,,,,,,,,,,,,,,,,,,,10/27/17 22:08,noise,KOM.NC_201710272208_NO
576,NC,GDXB,HH,38.807968,-122.795303,939,600,autopicker,0.94,0.639999986,653,autopicker,0.87,nc72968341,23:42.5,None,38.795,-122.76566,None,None,None,0.42,None,0.62,md,None,None,0.02653,2.95,120,[29.5        23.39999962 27.39999962],[[1412.]],23:37.2,earthquake_local,GDXB.NC_20180212062336_EV
577,PB,B086,HH,33.5575,-116.531,1392,393,autopicker,0.88,12.09000015,1263,autopicker,0.86,ci37617752,38:05.7,None,34.01683,-117.11033,None,None,None,15.69,None,1.17,ml,None,None,0.6653,73.99,313.5,[27.60000038 22.39999962 15.80000019],[[3100.]],38:13.9,earthquake_local,B086.PB_20160701043812_EV
578,BK,OXMT,HH,37.49936,-122.42431,209,,,,,,,,,,,,,,,,,,,,,,,,,,,2/4/14 19:53,noise,OXMT.BK_201402041953_NO
579,AZ,RDM,HH,33.63,-116.8478,1365,900,manual,0.59,11.60000038,1691,autopicker,0.92,ci11057245,56:08.5,,34.1491667,-116.458,0.17,38,0.25,10.01,0.76,1.43,ml,CI,None,0.6152,67.94,31.9,[19.29999924 13.30000019 11.        ],[[3199.]],56:11.1,earthquake_local,RDM.AZ_20120122165610_EV
580,GS,KAN11,HH,37.205967,-97.9133,410,600,manual,0.62,1.559999943,710,manual,0.62,ismpkansas70063103,55:18.9,None,37.19833,-97.88767,None,None,None,7.71,None,1.93,ml,None,None,0.02184,2.43,110.5,[39.5        39.90000153 28.29999924],[[1639.]],55:14.4,earthquake_local,KAN11.GS_20150104165513_EV
581,CI,DNR,HH,33.56667,-116.63056,1274,700,manual,0.59,3.579999924,994,manual,0.59,ci11369450,34:19.0,None,33.48017,-116.463,None,None,None,9.1,None,1.9,ml,None,None,0.1644,18.29,121.8,[18.20000076 24.39999962 25.89999962],[[1559.]],34:15.6,earthquake_local,DNR.CI_20130924133414_EV
582,NC,SN01,HH,38.30459,-122.3396,50,,,,,,,,,,,,,,,,,,,,,,,,,,,9/6/14 8:01,noise,SN01.NC_201409060801_NO
583,PB,B047,EH,40.25047,-124.17133,80,,,,,,,,,,,,,,,,,,,,,,,,,,,9/12/11 21:06,noise,B047.PB_201109122106_NO
584,AU,OOD,BH,-27.794399,135.688004,162.2,,,,,,,,,,,,,,,,,,,,,,,,,,,1/15/18 2:55,noise,OOD.AU_20180115025500_NO
585,PB,B918,EH,35.9357,-117.6017,1042.6,600,autopicker,0.94,1.169999957,691,autopicker,0.84,ci37338583,11:39.4,None,35.95267,-117.6505,None,None,None,3.31,None,0.5,ml,None,None,0.04307,4.79,293.2,[36.90000153 39.         46.40000153],[[1564.]],11:34.6,earthquake_local,B918.PB_20160502131133_EV
586,AT,AKUT,BH,54.13517,-165.771851,19.2,,,,,,,,,,,,,,,,,,,,,,,,,,,1/15/18 11:09,noise,AKUT.AT_20180115110954_NO
587,AK,CCB,BH,64.6453,-147.8053,233,900,manual,0.87,13.34399986,1914.1,manual,0.52,ak012439hl6b,46:50.1,,65.2644,-148.433,0.61,,0,19.8,0,0.9,ml,None,None,0.674,75.13,336.49,[22.89999962 26.79999924 21.79999924],[[3199.]],46:54.5,earthquake_local,CCB.AK_20120329044653_EV
588,KZ,MKAR,BH,46.7937,82.2904,609.4,924.4,autopicker,0.91,10.93999958,1748.4,autopicker,0.57,34953438,50:18.5,0.49,47.3495,82.3438,0.25,100,3,0,None,1,mpv,None,None,0.5579,61.92,3.7362,[19.60000038 20.5        19.10000038],[[3199.]],50:20.2,earthquake_local,MKAR.KZ_20140921135019_EV
589,AK,WAT6,BH,62.5808,-147.74,1681,704.2,autopicker,0.88,17.30699921,1943.2,autopicker,0.54,ak17705723,29:27.3,None,63.5092,-147.6187,None,None,None,1.5,None,1.9,ml,None,None,0.93,103.66,3.44,[37.         31.70000076 34.        ],[[2970.]],29:37.5,earthquake_local,WAT6.AK_20171227212936_EV
590,BK,TRIN,HH,40.974,-122.705,937,,,,,,,,,,,,,,,,,,,,,,,,,,,8/28/18 4:44,noise,TRIN.BK_201808280444_NO
591,CI,HYS,HH,34.86532,-117.56975,833,900,manual,0.62,11.69999981,1700,manual,0.56,ci37407752,32:42.6,None,35.0905,-118.28183,None,None,None,5.76,None,0.92,ml,None,None,0.6264,69.66,290.9,[13.69999981 12.39999962  8.60000038],[[3199.]],32:45.3,earthquake_local,HYS.CI_20150625083244_EV
592,C1,AF01,HH,-22.95196,-68.17876,2442.9,,,,,,,,,,,,,,,,,,,,,,,,,,,1/16/18 20:41,noise,AF01.C1_20180116204106_NO
593,ET,WMTN,EH,36.41,-84.176,830,,,,,,,,,,,,,,,,,,,,,,,,,,,1/16/18 8:07,noise,WMTN.ET_20180116080712_NO
594,NC,GDXB,HH,38.807968,-122.795303,939,797,autopicker,0.93,0.730000019,860,autopicker,0.9,nc72076016,10:06.1,None,38.82617,-122.82833,None,None,None,1.16,None,1.04,md,None,None,0.03153,3.51,305,[26.79999924 30.         31.20000076],[[1846.]],09:58.8,earthquake_local,GDXB.NC_20130924130957_EV
595,AK,CHUM,BH,63.8827,-152.3152,217,600,manual,0.72,13.56999969,1490.3,manual,0.93,ak15503658,40:01.3,None,63.5328,-151.0473,None,None,None,13.4,None,1.4,ml,None,None,0.662,73.83,122.49,[20.         23.29999924 16.29999924],[[3199.]],40:08.8,earthquake_local,CHUM.AK_20170316034007_EV
596,NN,WAK,EH,38.504299,-119.438202,1890,900,manual,0.95,21.93188095,2509.119,manual,0.93,nn00019976,20:19.1,,39.5798,-120.0171,0.099,76.32,0,6.5,1.3,1.5,ml,NN,None,1.166,129.49,337.09,[15.60000038 16.29999924 10.        ],[[5900.]],20:32.0,earthquake_local,WAK.NN_20001123212030_EV
597,PB,B081,HH,33.711167,-116.714167,1467,500,manual,0.56,16.18000031,1582,manual,0.56,ci15478737,06:15.4,None,32.8625,-116.49,None,None,None,11.83,None,1.94,ml,None,None,0.867,96.41,167.6,[31.10000038 31.60000038 27.5       ],[[2388.]],06:26.6,earthquake_local,B081.PB_20140322040625_EV
598,C1,AP01,HH,-18.3708,-70.3419,31,,,,,,,,,,,,,,,,,,,,,,,,,,,1/16/18 16:18,noise,AP01.C1_20180116161836_NO
599,NN,BEK,HH,39.8666,-120.359596,1743,600,manual,0.95,4.426179886,952.474,manual,0.93,nn00506719,50:12.3,None,39.6615,-120.2909,None,None,None,9,None,0.05,ml,None,None,0.212,23.52,165.58,[14.80000019 13.30000019 10.69999981],[[1604.]],50:10.7,earthquake_local,BEK.NN_20150815235009_EV
600,PB,B081,EH,33.711167,-116.714167,1467,500,manual,0.66,2.730000019,698,manual,0.58,ci15209417,32:22.6,,33.654,-116.7361667,0.08,93,0.44,15.32,0.63,0.35,ml,CI,None,0.0599,6.66,197.8,[30.39999962 25.70000076 26.89999962],[[1130.]],32:20.3,earthquake_local,B081.PB_20120901103219_EV
601,NM,CACT,EH,36.2302,-89.4204,115,700,manual,0.58,2.359999895,933,autopicker,0.49,nm610418,52:25.9,None,36.17567,-89.46417,None,None,None,9.16,None,1.3,md,None,None,0.06492,7.22,213,[14.80000019 17.60000038 22.5       ],[[2332.]],52:21.3,earthquake_local,CACT.NM_20140618115220_EV
602,NC,NEH,HN,38.33656,-122.81082,84,,,,,,,,,,,,,,,,,,,,,,,,,,,10/30/01 4:56,noise,NEH.NC_200110300456_NO
603,PB,B204,EH,46.136,-122.169,784.2,700,manual,0.64,1.679999948,836,manual,0.6,uw61314186,54:23.6,None,46.19467,-122.109,None,None,None,4.43,None,0.83,ml,None,None,0.07199,8,35.3,[35.70000076 33.70000076 33.        ],[[1328.]],54:18.2,earthquake_local,B204.PB_20170815095417_EV
604,BK,DANT,HN,40.2946,-121.8021,967,,,,,,,,,,,,,,,,,,,,,,,,,,,4/17/18 4:03,noise,DANT.BK_201804170403_NO
605,NC,MINS,HN,37.65377,-119.06093,2796,,,,,,,,,,,,,,,,,,,,,,,,,,,10/13/14 10:03,noise,MINS.NC_201410131003_NO
606,AK,BARN,BH,61.0595,-141.6622,1689,694.2,autopicker,0.91,5.379000187,1071.2,autopicker,0.82,ak16337837,08:40.2,None,60.9866,-141.1635,None,None,None,13.7,None,0.4,ml,None,None,0.252,28.16,107.01,[13.80000019 16.60000038 13.69999981],[[2375.]],08:38.6,earthquake_local,BARN.AK_20170716140837_EV
607,AU,PSAB2,BH,-21.55485,119.861053,302,,,,,,,,,,,,,,,,,,,,,,,,,,,1/15/18 22:33,noise,PSAB2.AU_20180115223306_NO
608,CI,PDM,HH,34.30336,-114.141518,144,,,,,,,,,,,,,,,,,,,,,,,,,,,1/15/18 17:27,noise,PDM.CI_20180115172712_NO
609,CI,WCS2,HH,36.02521,-117.76526,1143,400,manual,0.67,0.629999995,445,manual,0.54,ci37535871,52:07.2,None,36.03483,-117.774,None,None,None,2.24,None,0.2,ml,None,None,0.01193,1.33,323.7,[29.29999924 31.79999924 30.10000038],[[980.]],52:03.8,earthquake_local,WCS2.CI_20161130185202_EV
610,II,ABPO,BH,-19.018,47.229,1528,,,,,,,,,,,,,,,,,,,,,,,,,,,1/16/18 8:52,noise,ABPO.II_20180116085242_NO
611,IM,NV31,BH,38.4328,-118.1554,1509,900,manual,0.95,7.995190144,1464.049,manual,0.93,nn00404113,03:04.0,,38.0387,-118.0199,0.1089,122.05,0,5,2.4,1.9,ml,NN,None,0.408,45.33,165.18,[28.39999962 33.09999847 33.09999847],[[2301.]],03:03.0,earthquake_local,NV31.IM_20130223030302_EV
612,NC,CNI,HN,37.60795,-121.96456,393,,,,,,,,,,,,,,,,,,,,,,,,,,,6/20/15 8:30,noise,CNI.NC_201506200830_NO
613,AU,RMQ,SH,-26.489,148.755005,360,,,,,,,,,,,,,,,,,,,,,,,,,,,1/15/18 21:14,noise,RMQ.AU_20180115211442_NO
614,PB,B202,EH,46.2447,-122.1367,1218.6,500,manual,0.95,1.269999981,612,autopicker,0.83,uw10805633,53:24.0,,46.1963333,-122.183,0.1,63,None,-0.86,0.02,1.7,md,UW,None,0.05809,6.46,213.5,[31.89999962 29.29999924 25.20000076],[[1448.]],53:20.3,earthquake_local,B202.PB_20101105195319_EV
615,AZ,SND,HH,33.5519,-116.6129,1358,800,manual,0.57,2.579999924,1011,manual,0.57,ci11091730,33:47.4,,33.4713333,-116.562,0.06,251,0.59,9.79,0.56,0.35,ml,CI,None,0.09091,10.11,152.2,[9.19999981 7.30000019 8.5       ],[[1773.]],33:42.0,earthquake_local,SND.AZ_20120411143341_EV
616,AK,BRSE,BH,59.7417,-150.7414,541,500,manual,0,35.20999908,3130,manual,0,ak11670412,21:15.0,0.82,58.8195,-154.5453,0.4,,None,127.3,0.2,2.6,ml,None,None,2.16046,239.81,243.0237,[28.10000038 27.60000038 19.5       ],[[4367.]],21:45.2,earthquake_local,BRSE.AK_20150806102145_EV
617,AU,MTN,BH,-12.8436,131.132706,137.4,,,,,,,,,,,,,,,,,,,,,,,,,,,1/15/18 3:17,noise,MTN.AU_20180115031724_NO
