,network_code,receiver_code,receiver_type,receiver_latitude,receiver_longitude,receiver_elevation_m,p_arrival_sample,p_status,p_weight,p_travel_sec,s_arrival_sample,s_status,s_weight,source_id,source_origin_time,source_origin_uncertainty_sec,source_latitude,source_longitude,source_error_sec,source_gap_deg,source_horizontal_uncertainty_km,source_depth_km,source_depth_uncertainty_km,source_magnitude,source_magnitude_type,source_magnitude_author,source_mechanism_strike_dip_rake,source_distance_deg,source_distance_km,back_azimuth_deg,snr_db,coda_end_sample,trace_start_time,trace_category,trace_name
441,MI,ANA2,BH,16.3412,145.7115,317,,,,,,,,,,,,,,,,,,,,,,,,,,,12/15/13 14:16,noise,ANA2.MI_201312151416_NO
442,AK,GHO,BH,61.771,-148.926,1032,900,manual,0.5,21.20000076,2633,manual,0.5,606953116,41:16.1,1.68,60.492,-148.8569,0.9554,87.753,5.01402,38.92,None,3.4,ml,None,None,1.28,142.57,358.6,[43.29999924 45.         42.40000153],[[5900.]],41:28.3,earthquake_local,GHO.AK_20150331064127_EV
443,CI,LMH,HH,33.74418,-117.39135,496,596,autopicker,0.9,14.97000027,1651,autopicker,0.71,ci37888255,52:45.3,None,33.50517,-116.45433,None,None,None,6.02,None,1.92,ml,None,None,0.8174,90.9,107.3,[28.5        29.         28.10000038],[[2800.]],52:54.3,earthquake_local,LMH.CI_20180305045253_EV
444,TA,U40A,BH,36.3563,-92.8535,374,900,manual,0.6,15.72999954,2045,autopicker,0.62,nm609521,04:15.4,None,36.24583,-91.78617,None,None,None,15.95,None,1.8,md,None,None,0.8692,96.65,98,[19.10000038 15.60000038 25.60000038],[[3199.]],04:22.1,earthquake_local,U40A.TA_20120824210421_EV
445,NC,CHR,HN,37.37288,-121.76887,489,,,,,,,,,,,,,,,,,,,,,,,,,,,6/7/08 7:01,noise,CHR.NC_200806070701_NO
446,AV,ANON,EH,56.919,-158.1737,445,,,,,,,,,,,,,,,,,,,,,,,,,,,1/16/18 7:56,noise,ANON.AV_20180116075600_NO
447,AG,WHAR,HH,35.290001,-92.289001,184,,,,,,,,,,,,,,,,,,,,,,,,,,,7/26/10 21:34,noise,WHAR.AG_20100726213418_NO
448,TX,PB11,HH,31.93553,-104.034119,915,,,,,,,,,,,,,,,,,,,,,,,,,,,3/20/20 4:22,noise,PB11.TX_20200320042230_NO
449,HA,THAL,HH,38.0357,22.6634,196,500,manual,0.5,13.72000027,1755,autopicker,0.8,17340724,20:22.2,0.69,38.3154,21.7813,1.1074,32.05,1.90991,7.56,None,3.9,mb,None,None,0.75,83.29,111.5,[49.79999924 50.5        47.        ],[[5900.]],20:30.9,earthquake_local,THAL.HA_20110914192029_EV
450,IU,MA2,BH,59.5756,150.77,337,,,,,,,,,,,,,,,,,,,,,,,,,,,1/15/18 4:29,noise,MA2.IU_20180115042930_NO
451,NC,JFP,HN,37.36045,-122.18986,291,,,,,,,,,,,,,,,,,,,,,,,,,,,11/12/14 21:50,noise,JFP.NC_201411122150_NO
452,PB,B046,EH,40.32197,-124.2843,44,,,,,,,,,,,,,,,,,,,,,,,,,,,11/8/16 11:03,noise,B046.PB_201611081103_NO
453,AK,SAW,BH,61.807,-148.3316,781,900,manual,1,29.62800026,3053.8,manual,0.46,ak002e5f205b,57:13.3,None,63.4654,-147.7413,None,None,None,2.1,None,3.3,ml,None,None,1.679,187.3,9.58,[19.79999924  1.39999998 20.        ],[[5900.]],57:33.9,earthquake_local,SAW.AK_20021104025732_EV
454,TX,PB07,HH,31.57935,-103.667931,856,,,,,,,,,,,,,,,,,,,,,,,,,,,3/15/20 7:36,noise,PB07.TX_20200315073624_NO
455,NM,BRGM,EH,36.205,-89.859,78,400,manual,0.6,3.50999999,682,manual,0.6,nm60012608,28:13.1,None,36.091,-89.7605,None,None,None,10.93,None,2.06,md,None,None,0.1389,15.45,145.1,[27.70000076 25.89999962 28.89999962],[[1727.]],28:12.6,earthquake_local,BRGM.NM_20150909182811_EV
456,NN,DON,EH,39.3517,-120.3205,2268,700,manual,0.95,16.32728958,1912.508,manual,0.93,nn00588089,02:43.9,None,39.0099,-119.2891,None,None,None,8.1,None,1.4,ml,None,None,0.87,96.86,113.47,[10.30000019 12.10000038  8.39999962],[[3199.]],02:53.3,earthquake_local,DON.NN_20170505220252_EV
457,TA,P30M,BH,60.1218,-136.9598,883,800,manual,0.64,7.34499979,1281.2,manual,0.93,ak15975903,39:17.9,None,59.8131,-136.667,None,None,None,3.3,None,2,ml,None,None,0.342,38.08,154.74,[40.59999847 39.59999847 34.90000153],[[1961.]],39:17.3,earthquake_local,P30M.TA_20170508003916_EV
458,NN,LHV,HH,38.2513,-118.5049,2353,400,manual,0.95,11.83547974,1272.459,manual,0.93,nn00600218,47:33.1,,38.3273,-119.2454,0.1492,222.37,0,3.6,13.9,0.6,ml,NN,None,0.586,65.33,277.22,[ 8.5        15.80000019 17.20000076],[[3134.]],47:41.0,earthquake_local,LHV.NN_20170810164739_EV
459,C1,CO01,HH,-29.9773,-70.0939,2157,,,,,,,,,,,,,,,,,,,,,,,,,,,1/15/18 0:12,noise,CO01.C1_20180115001236_NO
460,HV,HSSD,HH,19.602683,-155.483002,2465,700,manual,0.6,8.630000114,1375,manual,0,hv61816251,51:49.1,None,19.34783,-155.11533,None,None,None,5.15,None,1.77,md,None,None,0.4297,47.81,126.4,[27.89999962 36.20000076 25.29999924],[[2527.]],51:50.8,earthquake_local,HSSD.HV_20170629065149_EV
461,NN,OMMB,HH,37.6131,-119.0005,2768,600,manual,0.64,1.679999948,720,manual,0.64,nc72740640,54:03.7,None,37.641,-118.95067,None,None,None,4.74,None,0.1,md,None,None,0.04865,5.38,54.8,[28.29999924 27.60000038 29.5       ],[[1167.]],53:59.3,earthquake_local,OMMB.NN_20161218015358_EV
462,CI,DAW,HH,36.27148,-117.59214,0,400,manual,0.59,4.46999979,751,manual,0.54,ci37274210,29:14.5,None,36.03867,-117.59233,None,None,None,4.1,None,1.36,ml,None,None,0.2323,25.83,180,[23.89999962 25.29999924 22.        ],[[1707.]],7/3/18 20:29,earthquake_local,DAW.CI_20180703202914_EV
463,KZ,AKTO,BH,50.434799,58.016399,379,,,,,,,,,,,,,,,,,,,,,,,,,,,1/16/18 4:58,noise,AKTO.KZ_20180116045854_NO
464,KZ,BVAR,BH,53.02492,70.38853,420,965.6,autopicker,0.54,7.309999943,1460.6,autopicker,0.56,68314791,43:47.7,0.82,52.6831,70.4791,0.54,76,9.1,0,None,1.5,mpv,None,None,0.3471,38.53,170.8515,[25.79999924         nan 31.79999924],[[2241.]],43:45.4,earthquake_local,BVAR.KZ_20060928074344_EV
465,BK,DCMP,HN,39.469,-123.3375,440,,,,,,,,,,,,,,,,,,,,,,,,,,,5/19/18 13:50,noise,DCMP.BK_201805191350_NO
466,NC,MDPB,HN,37.63227,-119.07935,2360,,,,,,,,,,,,,,,,,,,,,,,,,,,5/22/15 16:40,noise,MDPB.NC_201505221640_NO
467,NN,MPK,HH,39.29567,-120.03017,2484,,,,,,,,,,,,,,,,,,,,,,,,,,,10/25/17 3:30,noise,MPK.NN_201710250330_NO
468,NC,GDXB,HH,38.807968,-122.795303,939,498,autopicker,0.91,0.50999999,553,autopicker,0.91,nc71852595,06:38.7,,38.8188324,-122.8228302,0.02,91,0.55,0.91,1.24,0.56,md,NC,None,0.02432,2.68,296,[27.89999962 22.60000038 26.        ],[[1216.]],06:34.3,earthquake_local,GDXB.NC_20121005070633_EV
469,AK,DHY,BH,63.0753,-147.3759,1611,400,manual,0.54,9.331000328,1115.5,manual,0.8,ak0124vlyx9p,48:21.6,,62.7186,-146.9537,0.36,,0,32.1,0.2,1.3,ml,None,None,0.405,45.18,151.84,[18.29999924 29.5        18.10000038],[[3199.]],48:26.9,earthquake_local,DHY.AK_20120415184825_EV
470,GS,KAN06,HH,37.248,-97.8586,393,799,autopicker,0.92,3.380000114,1042,autopicker,0.86,ismpkansas70089108,48:27.1,None,37.0905,-97.84883,None,None,None,4.26,None,1.75,ml,None,None,0.1574,17.5,177.2,[13.39999962 14.89999962  9.39999962],[[2570.]],48:22.5,earthquake_local,KAN06.GS_20150401054821_EV
471,LD,ASNY,HH,44.39812,-73.8103,330,,,,,,,,,,,,,,,,,,,,,,,,,,,12/22/16 1:37,noise,ASNY.LD_201612220137_NO
472,CI,CLC,HH,35.81574,-117.59751,775,900,manual,0.6,6.03000021,1344,manual,0.6,ci11280490,29:33.7,None,36.0475,-117.85933,None,None,None,0.97,None,0.57,ml,None,None,0.3141,34.92,317.5,[12.80000019 15.80000019 11.60000038],[[3199.]],29:30.7,earthquake_local,CLC.CI_20130406122929_EV
473,CI,PALA,HH,33.38905,-117.03182,552,600,manual,0.6,16.38999939,1790,manual,0.54,ci37301479,35:26.3,None,34.036,-116.31833,None,None,None,8.59,None,1.12,ml,None,None,0.8775,97.59,42.7,[14.10000038 20.         17.39999962],[[3199.]],35:36.7,earthquake_local,PALA.CI_20160131033535_EV
474,NN,OMMB,HH,37.6131,-119.0005,2768,700,manual,0.57,6.380000114,1152,autopicker,0.54,nc72606780,17:44.7,None,37.4275,-118.67333,None,None,None,10.41,None,0.94,md,None,None,0.3198,35.51,125.7,[23.10000038 20.89999962 20.        ],[[1891.]],17:44.1,earthquake_local,OMMB.NN_20160315081743_EV
475,PB,B084,EH,33.61157,-116.45637,1271,800,manual,0.63,3.420000076,1037,manual,0.63,ci10249193,06:27.8,,33.5818333,-116.5931667,0.15,77,0.34,13.73,0.54,0.51,ml,CI,None,0.118,13.12,255.3,[24.60000038 26.         34.90000153],[[1485.]],06:23.3,earthquake_local,B084.PB_20070523130622_EV
476,NC,GAXB,HN,38.71073,-122.75733,386,,,,,,,,,,,,,,,,,,,,,,,,,,,7/5/08 23:26,noise,GAXB.NC_200807052326_NO
477,CC,CIHL,BH,43.75097,-121.14862,1966,,,,,,,,,,,,,,,,,,,,,,,,,,,1/15/18 11:54,noise,CIHL.CC_20180115115400_NO
478,PB,B921,EH,35.5865,-117.4622,694.5,400,manual,0.58,9.970000267,1170,manual,0.58,ci11085602,38:38.5,,36.0108333,-117.8656667,0.14,77,0.26,1,0.38,1.43,ml,CI,None,0.5356,59.55,322.2,[26.20000076 27.60000038 20.79999924],[[2184.]],38:44.5,earthquake_local,B921.PB_20120328203843_EV
479,AV,RED,BH,60.4196,-152.7742,1071,889,autopicker,0.75,17.99500084,2312,autopicker,0.94,ak011efgt6d7,18:04.8,,59.565,-153.0719,0.47,,0,97.3,0.7,2.1,ml,None,None,0.868,96.65,189.83,[15.60000038 13.19999981  6.        ],[[3199.]],18:13.9,earthquake_local,RED.AV_20111110101812_EV
480,NN,TVH2,HH,38.3782,-118.7564,2174,900,manual,0.95,1.06329,1004.238,manual,0.93,nn00344160,22:38.3,,38.4208,-118.758,0.1461,134.13,0,3,2.8,1.7,ml,NN,None,0.043,4.73,358.34,[26.39999962 23.89999962 39.79999924],[[2216.]],22:30.4,earthquake_local,TVH2.NN_20110801132229_EV
481,AV,STLK,BH,61.4982,-151.8349,945,899,autopicker,0.9,12.56599998,1924,autopicker,0.69,ak18696189,32:13.5,None,61.5386,-150.4849,None,None,None,50,None,1.2,ml,None,None,0.645,71.99,87,[13.69999981 20.39999962  9.19999981],[[3199.]],32:17.1,earthquake_local,STLK.AV_20180314193216_EV
482,PB,B921,EH,35.5865,-117.4622,694.5,700,manual,0.52,17.65999985,1996,manual,0.52,ci10927077,47:52.2,,35.2651667,-118.5905,0.18,50,0.27,6.81,1.33,1.83,ml,CI,None,0.9757,108.49,250.4,[18.20000076 21.39999962 12.30000019],[[3199.]],48:02.9,earthquake_local,B921.PB_20110416194801_EV
483,4F,VNLC,EH,32.5759,-97.2036,206,,,,,,,,,,,,,,,,,,,,,,,,,,,1/15/18 4:04,noise,VNLC.4F_20180115040418_NO
484,ZQ,AAM3,HH,-26.374,27.416,1597.1,1118.7,autopicker,0.85,3.950000048,1311.7,autopicker,0.76,419503,41:56.2,0.84,-26.419,27.503,0.3,228,9,2,None,1.3,ml,None,None,0.0902,10.01,119.8893,[25.79999924 21.70000076 23.5       ],[[2067.]],41:49.0,earthquake_local,AAM3.ZQ_20070308004147_EV
485,AF,POGA,HH,-27.346,31.707,290,,,,,,,,,,,,,,,,,,,,,,,,,,,1/15/18 11:38,noise,POGA.AF_20180115113816_NO
486,GS,KAN13,HH,37.012881,-97.477803,340,600,manual,0.5,15.35999966,1724,autopicker,0.93,605288257,01:08.0,1.03,36.1989,-97.3936,0.9267,18.96,4.06927,8.16,None,4,ml,None,None,0.81,90.64,355.3,[44.20000076 39.09999847 30.39999962],[[5288.]],01:17.4,earthquake_local,KAN13.GS_20140913200116_EV
487,CN,DAWY,HH,64.0647,-139.3937,771,,,,,,,,,,,,,,,,,,,,,,,,,,,1/15/18 1:47,noise,DAWY.CN_20180115014706_NO
488,PB,B932,EH,40.275,-124.2212,52,800,manual,0.68,8.31000042,1457,manual,0,nc72542185,21:40.9,None,40.27883,-123.69817,None,None,None,27.66,None,1.72,md,None,None,0.4,44.48,89.6,[22.39999962 26.5        13.69999981],[[2148.]],21:41.2,earthquake_local,B932.PB_20151022142140_EV
489,NN,PRN,HH,37.4065,-115.0512,1464,700,manual,0.95,2.828739882,898.179,manual,0.93,nn00402311,04:15.8,,37.3062,-114.9318,0.1752,236.09,0,0,0,1.8,ml,NN,None,0.138,15.36,136.63,[48.90000153 48.5        50.09999847],[[1659.]],04:11.7,earthquake_local,PRN.NN_20130208060410_EV
490,9F,EORO,EH,-43.425999,170.169006,233,,,,,,,,,,,,,,,,,,,,,,,,,,,1/15/18 4:05,noise,EORO.9F_20180115040542_NO
491,CN,ORIO,HH,45.4515,-75.511,74,,,,,,,,,,,,,,,,,,,,,,,,,,,1/15/18 3:43,noise,ORIO.CN_20180115034318_NO
492,NC,GMR,HN,39.13317,-123.46788,370,,,,,,,,,,,,,,,,,,,,,,,,,,,6/29/17 20:45,noise,GMR.NC_201706292045_NO
493,AZ,LVA2,HH,33.3516,-116.5615,1435,699,autopicker,0.93,6.300000191,1152,autopicker,0.73,ci37525704,32:57.1,None,33.041,-116.44133,None,None,None,6.87,None,1.49,ml,None,None,0.3257,36.22,162.1,[28.29999924 30.20000076 31.89999962],[[1983.]],32:56.4,earthquake_local,LVA2.AZ_20160218083255_EV
494,NC,GDXB,HH,38.807968,-122.795303,939,499,autopicker,0.93,0.5,565,autopicker,0.88,nc71987751,32:48.8,,38.8313332,-122.8013306,0.01,103,0.38,0.82,1.54,0.07,md,NC,None,0.02342,2.65,348,[26.10000038 25.20000076 22.79999924],[[1262.]],32:44.3,earthquake_local,GDXB.NC_20130508063243_EV
495,PB,B049,EH,40.2375,-123.8197,117,700,manual,0.64,6.360000134,1217,manual,0.53,nc72754570,08:50.2,None,40.32567,-124.09817,None,None,None,28.2,None,1.83,md,None,None,0.2305,25.63,292.4,[32.79999924 39.29999924 34.        ],[[1726.]],08:49.5,earthquake_local,B049.PB_20170121100848_EV
496,ET,GMG,EH,34.863,-84.67,1097,700,manual,0.58,12.10000038,1571,autopicker,0.64,se610636,01:48.9,None,35.36417,-85.1955,None,None,None,14.15,None,1.9,md,None,None,0.66,73.39,319,[19.         15.60000038 17.60000038],[[3199.]],01:54.0,earthquake_local,GMG.ET_20140622060152_EV
497,NC,CHR,HN,37.37288,-121.76887,489,,,,,,,,,,,,,,,,,,,,,,,,,,,7/22/14 10:04,noise,CHR.NC_201407221004_NO
498,NC,GDXB,HH,38.807968,-122.795303,939,900,manual,0.74,0.829999983,966,manual,0.62,nc72967736,48:01.8,None,38.82183,-122.79383,None,None,None,3.34,None,0.79,md,None,None,0.01389,1.54,4.7,[27.89999962 24.29999924 28.        ],[[2064.]],47:53.6,earthquake_local,GDXB.NC_20180211104752_EV
499,AV,AKSA,BH,54.1095,-165.6987,213,,,,,,,,,,,,,,,,,,,,,,,,,,,1/16/18 21:51,noise,AKSA.AV_20180116215148_NO
500,SN,BTW,EH,36.9978,-116.5674,1391,900,manual,0.95,12.48799992,1823.256,manual,0.93,nn00428588,25:17.4,None,37.1555,-117.3449,None,None,None,17.1,None,0.3,ml,None,None,0.64,71.32,284.03,[16.89999962 18.10000038 15.30000019],[[3199.]],25:20.8,earthquake_local,BTW.SN_20131105132519_EV
501,AK,PIN,BH,60.095901,-140.252502,975,,,,,,,,,,,,,,,,,,,,,,,,,,,1/15/18 0:56,noise,PIN.AK_20180115005600_NO
502,CI,DNR,HH,33.56667,-116.63056,1274,400,manual,0.66,10.06000042,1187,manual,0.6,ci15254305,02:45.2,,33.0611667,-116.4536667,0.21,38,0.2,6.05,0.87,1.83,ml,CI,None,0.5255,58.43,163.7,[20.5        24.89999962 22.60000038],[[2290.]],02:51.2,earthquake_local,DNR.CI_20121202000250_EV
503,TX,PB19,HH,31.303087,-103.099701,782.4,,,,,,,,,,,,,,,,,,,,,,,,,,,3/15/20 0:21,noise,PB19.TX_20200315002100_NO
504,KZ,ABKAR,BH,49.2556,59.9431,243,,,,,,,,,,,,,,,,,,,,,,,,,,,5/2/10 8:56,noise,ABKAR.KZ_201005020856_NO
505,NN,COLR,HH,41.9582,-119.7905,1482,900,manual,0.95,3.680799961,1142.804,manual,0.93,nn00472604,08:48.2,,41.8648,-119.6438,0.104,222.26,0,7.7,3.9,0.9,ml,NN,None,0.144,15.99,130.58,[17.10000038 24.5        21.20000076],[[1768.]],08:42.9,earthquake_local,COLR.NN_20141218100841_EV
506,PB,B081,EH,33.711167,-116.714167,1467,800,manual,0.58,15.17000008,1842,manual,0.58,ci15194841,29:53.3,,33.1678333,-115.9846667,0.18,35,0.22,5.65,1.57,1.57,ml,CI,None,0.8159,90.74,132,[28.20000076 26.5        25.39999962],[[2930.]],30:00.5,earthquake_local,B081.PB_20120819042959_EV
507,HV,AHUD,EH,19.371567,-155.263462,1051,801,autopicker,0.93,3.059999943,1048,autopicker,0.75,hv61645021,41:46.7,None,19.32417,-155.159,None,None,None,1.95,None,1.7,md,None,None,0.1093,12.17,116,[16.89999962 16.70000076 18.89999962],[[2590.]],41:41.7,earthquake_local,AHUD.HV_20170315144140_EV
508,AZ,KNW,HH,33.7141,-116.7119,1507,500,manual,0.58,8.300000191,1074,manual,0.62,ci11248498,09:21.6,None,33.2825,-116.78383,None,None,None,11.54,None,1.3,ml,None,None,0.4346,48.33,187.9,[27.29999924 25.60000038 23.20000076],[[1739.]],09:24.9,earthquake_local,KNW.AZ_20130224010923_EV
509,TX,PB11,HH,31.93553,-104.034119,915,,,,,,,,,,,,,,,,,,,,,,,,,,,3/22/20 12:21,noise,PB11.TX_20200322122118_NO
510,AK,RND,BH,63.4056,-148.8602,993.6,700,manual,0.69,14.84599972,1841.2,manual,0.83,ak012dloq14u,48:53.7,,63.4229,-149.5626,0.58,,0,101.3,0.5,1,ml,None,None,0.315,35.14,272.84,[6.5999999 3.9000001 3.0999999],[[3199.]],49:01.6,earthquake_local,RND.AK_20121022094900_EV
511,AK,BPAW,BH,64.0997,-150.9873,619,400,manual,0.52,16.49200058,1516.3,manual,0.75,ak16776946,04:16.4,None,63.2507,-151.1908,None,None,None,11.9,None,0.7,ml,None,None,0.854,95.17,185.98,[9.5        8.60000038 7.5       ],[[3199.]],04:28.9,earthquake_local,BPAW.AK_20170830180427_EV
512,PB,B057,EH,38.0273,-122.5655,14.4,900,manual,0,15.85000038,2087,autopicker,0.77,nc72626890,07:57.7,None,38.822,-122.84333,None,None,None,2.07,None,2.03,md,None,None,0.8252,91.49,344.6,[21.20000076 20.79999924 17.5       ],[[3199.]],08:04.6,earthquake_local,B057.PB_20160424160803_EV
513,BK,JRSC,HN,37.4038,-122.2376,103,,,,,,,,,,,,,,,,,,,,,,,,,,,10/7/12 22:38,noise,JRSC.BK_201210072238_NO
514,CI,DGR,HH,33.65001,-117.00947,650,800,manual,0.64,6.380000114,1281,autopicker,0.86,ci11389250,47:35.6,None,33.90017,-116.74583,None,None,None,13.84,None,1.8,ml,None,None,0.3286,36.96,40.7,[42.29999924 42.29999924 42.70000076],[[2105.]],47:34.0,earthquake_local,DGR.CI_20131108224732_EV
515,AU,PSAB2,BH,-21.55485,119.861053,302,,,,,,,,,,,,,,,,,,,,,,,,,,,1/15/18 16:14,noise,PSAB2.AU_20180115161424_NO
516,C1,AC06,HH,-27.357117,-70.354689,380,,,,,,,,,,,,,,,,,,,,,,,,,,,1/16/18 2:43,noise,AC06.C1_20180116024306_NO
517,NC,GDXB,HH,38.807968,-122.795303,939,600,manual,0.63,1.370000005,710,manual,0.55,nc72738700,55:30.6,None,38.84417,-122.85667,None,None,None,1.03,None,1.3,md,None,None,0.06036,6.67,307.1,[35.40000153 32.29999924 34.79999924],[[1639.]],55:26.0,earthquake_local,GDXB.NC_20161215015524_EV
518,NC,GDXB,HH,38.807968,-122.795303,939,595,autopicker,0.92,1.070000052,685,autopicker,0.75,nc72257486,45:00.0,None,38.81,-122.73717,None,None,None,2.11,None,0.6,md,None,None,0.04595,5.05,88,[19.5        19.89999962 22.20000076],[[1549.]],44:55.2,earthquake_local,GDXB.NC_20140714234454_EV
519,AE,319A,HH,31.3757,-109.2809,1187,,,,,,,,,,,,,,,,,,,,,,,,,,,2/17/16 7:59,noise,319A.AE_201602170759_NO
520,BK,PETY,HH,40.1766,-122.7884,962,400,manual,0.63,6.420000076,816,autopicker,0.78,nc72968881,54:53.5,None,39.91633,-122.86133,None,None,None,5.86,None,1.64,md,None,None,0.2659,29.56,192.1,[34.5        42.29999924 32.90000153],[[1696.]],54:55.9,earthquake_local,PETY.BK_20180213115454_EV
521,AZ,CRY,HH,33.5654,-116.7373,1128,700,manual,0.62,7.71999979,1289,manual,0.56,ci37336255,35:02.1,None,33.9595,-116.74217,None,None,None,18.59,None,1.17,ml,None,None,0.3931,43.72,359.4,[17.10000038 21.20000076 21.70000076],[[1962.]],35:02.8,earthquake_local,CRY.AZ_20160425033501_EV
522,BE,RCHB,HH,50.155899,5.2276,221,,,,,,,,,,,,,,,,,,,,,,,,,,,1/15/18 10:13,noise,RCHB.BE_20180115101354_NO
523,CN,PGC,HH,48.6498,-123.4521,12,,,,,,,,,,,,,,,,,,,,,,,,,,,1/15/18 0:16,noise,PGC.CN_20180115001648_NO
524,NC,GDXB,HH,38.807968,-122.795303,939,400,manual,0.63,0.379999995,439,autopicker,0.9,nc72686086,27:28.0,None,38.803,-122.801,None,None,None,0.99,None,0.32,md,None,None,0.00631,0.74,221.8,[29.5        28.29999924 28.20000076],[[955.]],27:24.4,earthquake_local,GDXB.NC_20160827152723_EV
525,AV,AKMO,BH,54.0903,-166.0126,277,600,manual,0.5,35.86999893,3372,autopicker,0.68,602955315,58:53.5,0.44,52.7523,-168.7648,1.9001,125.293,None,35,None,4.1,mb,None,None,2.12,235.88,49.8,[33.90000153 37.09999847 18.70000076],[[5900.]],59:23.3,earthquake_local,AKMO.AV_20130516105922_EV
526,SN,SGR,EH,36.9804,-117.0336,1560,800,manual,0.95,9.551070213,1477.876,manual,0.93,nn00451987,28:01.7,None,36.4979,-116.9327,None,None,None,3.5,None,0.03,ml,None,None,0.489,54.3,170.52,[19.20000076 19.10000038 15.5       ],[[2864.]],28:03.3,earthquake_local,SGR.SN_20140711202802_EV
527,AV,AU22,BH,59.3702,-153.3573,105,,,,,,,,,,,,,,,,,,,,,,,,,,,2/6/17 23:45,noise,AU22.AV_201702062345_NO
528,PB,B203,EH,46.169,-122.333667,814.4,900,manual,0.6,4.110000134,1241,manual,0.6,uw61175981,34:18.8,None,46.24217,-122.07267,None,None,None,10.49,None,0.26,md,None,None,0.1955,21.72,68,[8.10000038 6.80000019 6.        ],[[3164.]],34:13.9,earthquake_local,B203.PB_20160701073412_EV
529,PB,B081,HH,33.711167,-116.714167,1467,500,manual,0.63,8.590000153,1110,manual,0.57,ci37249023,56:47.6,None,34.05717,-117.07983,None,None,None,14.89,None,0.81,ml,None,None,0.46,51.16,318.6,[23.60000038 23.70000076 23.        ],[[1723.]],56:51.2,earthquake_local,B081.PB_20150926015650_EV
530,IC,KMI,BH,25.1233,102.74,1975,,,,,,,,,,,,,,,,,,,,,,,,,,,1/15/18 1:45,noise,KMI.IC_20180115014542_NO
