,network_code,receiver_code,receiver_type,receiver_latitude,receiver_longitude,receiver_elevation_m,p_arrival_sample,p_status,p_weight,p_travel_sec,s_arrival_sample,s_status,s_weight,source_id,source_origin_time,source_origin_uncertainty_sec,source_latitude,source_longitude,source_error_sec,source_gap_deg,source_horizontal_uncertainty_km,source_depth_km,source_depth_uncertainty_km,source_magnitude,source_magnitude_type,source_magnitude_author,source_mechanism_strike_dip_rake,source_distance_deg,source_distance_km,back_azimuth_deg,snr_db,coda_end_sample,trace_start_time,trace_category,trace_name
175,AK,SCM,BH,61.832,-147.329,1050,598.2,autopicker,0.81,15.69799995,1779.2,autopicker,0.69,ak012doz04fh,15:08.9,,62.1914,-145.5512,0.45,,0,28.8,0.4,1.2,ml,None,None,0.908,101.36,67.54,[14.69999981 11.80000019 15.89999962],[[2522.]],15:18.6,earthquake_local,SCM.AK_20121024081517_EV
176,ZY,MGD,EH,33.18884,-116.76064,1300,500,manual,0.59,10.76000023,1248,autopicker,0.48,ci11422426,26:49.9,None,32.85583,-116.21233,None,None,None,4.12,None,3.2,md,None,None,0.5674,63.15,126.4,[30.10000038 30.60000038 17.70000076],[[2221.]],26:55.6,earthquake_local,MGD.ZY_20140209062654_EV
177,CC,JRO,BH,46.27527,-122.21826,1219,700,manual,1,3.119999886,966,manual,0.84,uw60977851,03:34.6,None,46.30967,-122.35567,None,None,None,13.38,None,0.39,md,None,None,0.1017,11.26,289.9,[16.10000038 15.5        16.10000038],[[1722.]],03:30.7,earthquake_local,JRO.CC_20150301180329_EV
178,PB,B086,EH,33.5575,-116.531,1392,800,manual,0.63,2.440000057,982,manual,0.59,ci14288416,07:00.8,,33.5,-116.4316667,0.16,161,0.63,9.02,0.86,0.37,ml,CI,None,0.1009,11.22,124.8,[29.20000076 28.70000076 26.89999962],[[1415.]],06:55.3,earthquake_local,B086.PB_20070501050654_EV
179,NN,OMMB,HH,37.6131,-119.0005,2768,399,autopicker,0.93,3.400000095,613,autopicker,0.87,nc72857741,46:47.9,None,37.53583,-118.829,None,None,None,0.84,None,1.31,md,None,None,0.1566,17.41,119.7,[38.59999847 37.79999924 35.5       ],[[1229.]],46:47.3,earthquake_local,OMMB.NN_20170802154646_EV
180,CI,ISA,HH,35.66278,-118.47403,873,1000,automatic,0.49,10.81000042,1776,manual,0.57,ci15013156,22:25.5,,35.388,-117.84,,30,None,5.9,7.04,3.4,ml,None,None,0.5856,65,118.2,[54.5        46.79999924 49.79999924],[[2630.]],22:26.3,earthquake_local,ISA.CI_20110707172226_EV
181,TA,O03E,HN,40.2946,-121.8021,967,,,,,,,,,,,,,,,,,,,,,,,,,,,1/15/14 20:37,noise,O03E.TA_201401152037_NO
182,CN,BNAB,HH,53.4932,-130.6368,-19,,,,,,,,,,,,,,,,,,,,,,,,,,,1/15/18 0:00,noise,BNAB.CN_20180115000042_NO
183,PB,B082,HH,33.598182,-116.596005,1374.8,400,autopicker,0.94,3.069999933,625,autopicker,0.85,ci11336050,58:03.2,None,33.51517,-116.4475,None,None,None,9.3,None,1.9,ml,None,None,0.1491,16.58,123.9,[55.40000153 59.20000076 53.29999924],[[1046.]],58:02.3,earthquake_local,B082.PB_20130717215801_EV
184,BK,MHC,HN,37.342,-121.642,1282,,,,,,,,,,,,,,,,,,,,,,,,,,,10/25/17 2:40,noise,MHC.BK_201710250240_NO
185,TA,M22K,BH,61.7531,-150.1205,57,700,manual,0.82,9.055999756,1388.8,manual,0.99,ak19837709,53:59.9,None,61.918,-149.2449,None,None,None,5.3,None,1.4,ml,None,None,0.445,49.65,68.64,[21.60000038 21.20000076  9.60000038],[[2795.]],54:02.0,earthquake_local,M22K.TA_20180704145400_EV
186,NN,BEK,HH,39.8666,-120.359596,1743,400,manual,0.95,7.824210167,882.479,manual,0,nn00430267,47:17.8,None,39.5721,-120.7116,None,None,None,8.3,None,0.42,ml,None,None,0.4,44.5,222.48,[12.10000038  7.19999981  4.30000019],[[1458.]],47:21.7,earthquake_local,BEK.NN_20131130014720_EV
187,AV,TAFP,EH,51.899,-177.9853,440,600,manual,0.95,7.848999977,1192.8,manual,0.73,ak16749951,48:48.5,None,51.8286,-178.5057,None,None,None,22.7,None,1.7,ml,None,None,0.329,36.69,257.43,[18.5        15.69999981 20.79999924],[[3199.]],48:50.4,earthquake_local,TAFP.AV_20170819014849_EV
188,AK,DIV,BH,61.1292,-145.7749,941.4,600,manual,0.64,10.17800045,1373.4,manual,0.64,ak15628464,45:18.6,None,61.4697,-146.7008,None,None,None,12.6,None,1.3,ml,None,None,0.56,62.47,307.03,[23.10000038 18.79999924 21.70000076],[[2407.]],45:22.8,earthquake_local,DIV.AK_20170324164521_EV
189,ET,WSNC,EH,35.173,-83.581,1640,,,,,,,,,,,,,,,,,,,,,,,,,,,1/16/18 13:30,noise,WSNC.ET_20180116133036_NO
190,PB,B087,EH,33.4955,-116.602667,1139,800,manual,0.61,2.940000057,1008,manual,0.61,ci15009380,48:01.3,,33.5683333,-116.6851667,0.05,131,0.42,12.05,0.64,0.53,ml,CI,None,0.1001,11.13,316.6,[7.30000019 3.79999995 5.        ],[[2432.]],47:56.2,earthquake_local,B087.PB_20110630014755_EV
191,PB,B084,HH,33.61157,-116.45637,1271,500,manual,0.59,5.300000191,866,manual,0.55,ci11280098,15:46.2,None,33.8485,-116.63767,None,None,None,5.58,None,0.76,ml,None,None,0.2805,31.19,327.5,[16.         12.69999981 21.10000038],[[1463.]],15:46.5,earthquake_local,B084.PB_20130405221545_EV
192,C1,LR05,HH,-40.229975,-72.0044,203.5,,,,,,,,,,,,,,,,,,,,,,,,,,,1/15/18 0:00,noise,LR05.C1_20180115000000_NO
193,SN,DOM,EH,37.0021,-116.4095,1711,900,manual,0.95,13.32942009,1843.203,manual,0.93,nn00484600,44:50.8,None,37.1487,-117.2495,None,None,None,9.3,None,1.02,ml,None,None,0.686,76.45,282.08,[13.         14.39999962 15.89999962],[[3199.]],44:55.1,earthquake_local,DOM.SN_20150225194454_EV
194,NN,OMMB,HH,37.6131,-119.0005,2768,900,manual,0.57,3.809999943,1126,manual,0,nc72829551,15:04.9,None,37.52867,-118.832,None,None,None,1.93,None,0.84,md,None,None,0.1582,17.59,122.4,[16.39999962 18.70000076 17.20000076],[[1934.]],14:59.7,earthquake_local,OMMB.NN_20170706131458_EV
195,TA,N02D,HH,40.974,-122.705,937,,,,,,,,,,,,,,,,,,,,,,,,,,,6/9/15 9:17,noise,N02D.TA_201506090917_NO
196,CN,PNPO,HH,48.5957,-86.2846,219.3,,,,,,,,,,,,,,,,,,,,,,,,,,,1/15/18 2:34,noise,PNPO.CN_20180115023400_NO
197,NC,GDXB,HH,38.80797,-122.7953,939,,,,,,,,,,,,,,,,,,,,,,,,,,,9/22/09 21:13,noise,GDXB.NC_200909222113_NO
198,HV,MLOD,HH,19.493172,-155.386023,2063,500,manual,0.61,7.199999809,1028,manual,0.61,hv61813561,19:34.1,,19.197,-155.4658333,0.09,101,0.59,34.24,0.8,2.4,ml,HV,None,0.3041,33.84,194.3,[32.5 31.5 30.5],[[1996.]],19:36.3,earthquake_local,MLOD.HV_20170626191935_EV
199,CN,MALO,HH,50.0244,-79.7635,271,,,,,,,,,,,,,,,,,,,,,,,,,,,1/16/18 22:00,noise,MALO.CN_20180116220056_NO
200,PB,B086,HH,33.5575,-116.531,1392,800,manual,0.64,4.170000076,1099,manual,0.59,ci11423210,43:37.0,None,33.65033,-116.714,None,None,None,15.94,None,0.44,ml,None,None,0.1786,19.86,301.3,[17.89999962 12.80000019  9.89999962],[[1508.]],43:33.2,earthquake_local,B086.PB_20140211124332_EV
201,KS,CHJ2,BH,36.873001,127.9748,217,,,,,,,,,,,,,,,,,,,,,,,,,,,1/15/18 2:35,noise,CHJ2.KS_20180115023524_NO
202,IU,WAKE,BH,19.2834,166.652,20,,,,,,,,,,,,,,,,,,,,,,,,,,,1/15/18 19:36,noise,WAKE.IU_20180115193642_NO
203,NN,GMN,HH,37.300301,-117.260696,2168,800,manual,0.95,5.180799961,1171.25,manual,0.93,nn00592038,50:52.6,None,37.1128,-117.0504,None,None,None,7.7,None,1.1,ml,None,None,0.252,27.96,138.3,[25.39999962  8.39999962 19.        ],[[1978.]],50:49.7,earthquake_local,GMN.NN_20170612115048_EV
204,TX,PB11,HH,31.93553,-104.034119,915,,,,,,,,,,,,,,,,,,,,,,,,,,,3/20/20 16:21,noise,PB11.TX_20200320162124_NO
205,NC,JJO,HN,37.20631,-121.97726,343,,,,,,,,,,,,,,,,,,,,,,,,,,,8/21/16 3:29,noise,JJO.NC_201608210329_NO
206,PB,B093,EH,33.59369,-116.7641,1229.6,600,manual,0.62,10.56999969,1384,manual,0.58,ci11088418,49:47.5,,33.8538333,-116.1521667,0.17,85,0.31,5.82,2.87,1.44,ml,CI,None,0.5722,63.63,63.1,[28.10000038 30.79999924 26.        ],[[2496.]],49:52.0,earthquake_local,B093.PB_20120404004951_EV
207,AK,LOGN,BH,60.824,-141.0048,1663.1,700,manual,0.82,12.86699963,1642.1,manual,0.98,ak18275201,21:06.8,None,61.1789,-139.8375,None,None,None,8,None,1.2,ml,None,None,0.668,74.51,58.42,[14.19999981 10.60000038  6.80000019],[[2389.]],21:12.7,earthquake_local,LOGN.AK_20180201142111_EV
208,CN,DAWY,HH,64.0647,-139.3937,771,,,,,,,,,,,,,,,,,,,,,,,,,,,1/15/18 4:30,noise,DAWY.CN_20180115043012_NO
209,NN,DSP,HN,37.3694,-117.9741,2400,,,,,,,,,,,,,,,,,,,,,,,,,,,6/15/18 19:38,noise,DSP.NN_201806151938_NO
210,NN,COLR,HN,41.9582,-119.7905,1482,,,,,,,,,,,,,,,,,,,,,,,,,,,1/14/17 14:42,noise,COLR.NN_201701141442_NO
211,PB,B086,EH,33.5575,-116.531,1392,900,manual,0.33,15.27999973,2049,manual,0.56,ci37277679,24:44.4,None,33.0003,-115.768,None,None,None,9.1,None,2.5,ml,None,None,0.8469,94.01,131.3,[35.         33.5        28.29999924],[[3307.]],24:50.7,earthquake_local,B086.PB_20151125142450_EV
212,NC,BJOB,EH,36.610867,-121.314667,1052,400,manual,0.68,3.609999895,682,manual,0.57,nc72698821,45:30.3,None,36.76733,-121.31083,None,None,None,4.28,None,1.13,md,None,None,0.1568,17.37,1.1,[40.40000153 40.40000153 31.5       ],[[1311.]],45:30.0,earthquake_local,BJOB.NC_20160919064528_EV
213,AK,RC01,BH,61.0889,-149.739,390,799,autopicker,0.91,14.23200035,1977,autopicker,0.98,ak01277uj7rl,02:45.9,,61.6925,-150.727,0.44,,0,63.3,0.4,1.3,ml,None,None,0.767,85.51,321.47,[16.20000076 17.5        14.80000019],[[3199.]],02:52.2,earthquake_local,RC01.AK_20120605120251_EV
214,AK,CHUM,BH,63.8827,-152.3152,217,500,manual,0.71,12.77999973,1321.8,manual,0.63,ak012e741iwu,00:55.7,,63.3535,-151.4928,0.73,,0,10.8,0.4,1.4,ml,None,None,0.643,71.72,145.65,[26.5        25.20000076 21.70000076],[[3199.]],01:03.4,earthquake_local,CHUM.AK_20121104050102_EV
215,BK,ELFS,HH,40.61835,-120.72791,1555,,,,,,,,,,,,,,,,,,,,,,,,,,,8/28/07 3:38,noise,ELFS.BK_200708280338_NO
216,7F,ARK1,EH,35.266602,-92.403503,176,,,,,,,,,,,,,,,,,,,,,,,,,,,7/26/10 17:02,noise,ARK1.7F_20100726170242_NO
217,CN,SAKN,HH,56.5359,-79.2324,2,,,,,,,,,,,,,,,,,,,,,,,,,,,1/15/18 14:19,noise,SAKN.CN_20180115141936_NO
218,NC,PCHB,HN,35.88846,-120.42729,479,,,,,,,,,,,,,,,,,,,,,,,,,,,7/21/03 14:08,noise,PCHB.NC_200307211408_NO
219,NN,VCN,HH,39.295601,-119.650299,1928,700,manual,0.95,5.415850163,1079.958,manual,0.93,nn00494560,30:15.0,,39.3472,-120,0.1856,62.46,0,4.5,2.1,0.7,ml,NN,None,0.276,30.7,280.69,[10.89999962 11.69999981 11.69999981],[[2919.]],30:13.4,earthquake_local,VCN.NN_20150514163012_EV
220,GO,KZRT,HH,41.3866,44.398701,723,700,manual,0.5,35.65999985,3299,autopicker,0.55,604093466,33:10.9,1.96,40.4588,46.9505,1.0749,199.099,None,8.77,None,2.5,ml,None,None,2.14,238.35,296.4,[25.79999924 23.5        21.5       ],[[5900.]],33:39.6,earthquake_local,KZRT.GO_20140116153338_EV
221,AK,KTH,BH,63.5527,-150.9233,1172,497.2,autopicker,0.72,16.25799942,1694.2,autopicker,0.53,ak15268220,02:17.5,,62.9669,-150.5446,0.41,,0,91.4,0.2,1.9,ml,None,None,0.61,68.01,163.95,[21.29999924 21.         16.        ],[[3199.]],02:28.7,earthquake_local,KTH.AK_20170214190227_EV
222,PB,B045,EH,40.436,-123.9965,29.4,800,manual,0.55,7.429999828,1355,manual,0.55,nc72715461,28:54.3,None,40.13883,-123.85267,None,None,None,22.09,None,1.46,md,None,None,0.3171,35.19,159.8,[32.59999847 29.79999924 27.39999962],[[2074.]],28:53.7,earthquake_local,B045.PB_20161021102852_EV
223,TA,J29N,BH,64.4525,-138.2164,982,600,autopicker,0.9,11.8920002,1452,autopicker,0.66,ak17090398,43:16.8,None,65.0653,-138.3939,None,None,None,16.8,None,1.7,ml,None,None,0.617,68.84,352.88,[28.         25.70000076 27.10000038],[[2785.]],43:22.7,earthquake_local,J29N.TA_20171020014321_EV
224,TX,PB15,HH,31.211399,-103.084389,825,,,,,,,,,,,,,,,,,,,,,,,,,,,3/23/20 22:35,noise,PB15.TX_20200323223512_NO
225,AV,CRP,EH,61.2664,-152.1578,1622,700,manual,0.5,13.64000034,1753,autopicker,0.67,604634234,57:02.3,0.86,60.8223,-151.6931,0.7931,33.959,4.83812,80.26,0.2,3.1,ml,None,None,0.5,55.49,333.5,[58.59999847 48.20000076 56.59999847],[[5900.]],57:08.9,earthquake_local,CRP.AV_20140518155707_EV
226,PB,B093,EH,33.59369,-116.7641,1229.6,600,manual,0.64,6.099999905,1025,manual,0.59,ci15157793,59:23.0,,33.2806667,-116.777,0.18,104,0.42,10.84,0.95,0.78,ml,CI,None,0.3124,34.74,182,[19.5        20.29999924 17.79999924],[[1607.]],59:23.1,earthquake_local,B093.PB_20120601185922_EV
227,4F,VBB1,EH,32.452,-97.2331,238,,,,,,,,,,,,,,,,,,,,,,,,,,,1/15/18 23:38,noise,VBB1.4F_20180115233854_NO
228,AV,SPNN,BH,61.3662,-152.7012,1666,500,automatic,0.91,35.13100052,3261,manual,0.77,ak19366976,10:10.9,0.99,59.0965,-152.6178,0.49,,4.61,61.1,0.4,2.5,ml,None,None,2.27,251.97,178.99,[27.89999962 21.         26.        ],[[5072.]],5/8/18 14:10,earthquake_local,SPNN.AV_20180508141041_EV
229,TA,N12A,BH,40.8522,-115.0387,1786,800,manual,0.95,7.949309826,1381.316,manual,0.93,nn00253151,13:14.7,,41.238,-114.8967,0.1012,81.66,0,8.4,3.5,1.9,ml,NN,None,0.401,44.48,15.56,[42.40000153 39.29999924 36.29999924],[[1955.]],13:14.6,earthquake_local,N12A.TA_20080707231313_EV
230,AK,CAST,BH,63.4188,-152.0844,611,500.2,autopicker,0.92,7.75,993.2,autopicker,0.77,ak16656091,00:24.1,None,63.3055,-151.2331,None,None,None,2.4,None,0.7,ml,None,None,0.398,44.43,106.92,[19.89999962 22.39999962 22.20000076],[[2090.]],00:26.9,earthquake_local,CAST.AK_20170824230025_EV
231,BK,RAMR,HH,35.63597,-120.86984,416.8,700,manual,0.85,2.910000086,957,manual,0,nc72071481,36:51.3,None,35.5265,-120.835,None,None,None,2.06,None,2.2,md,None,None,0.1135,12.55,165.5,[49.40000153 51.70000076 55.29999924],[[1642.]],36:47.2,earthquake_local,RAMR.BK_20130916133646_EV
232,NC,GDXB,HH,38.807968,-122.795303,939,800,manual,0.69,1.830000043,965,manual,0.58,nc71822451,13:19.8,,38.7491667,-122.7186667,0.08,73,0.11,0.88,0.21,0.98,md,NC,None,0.08378,9.32,134.5,[22.10000038 16.79999924 19.79999924],[[1520.]],13:13.6,earthquake_local,GDXB.NC_20120727011312_EV
233,SN,TPW,EH,36.9016,-116.2528,1573,800,manual,0.95,4.616209984,1120.654,manual,0.93,nn00594300,44:00.3,None,36.6968,-116.3124,None,None,None,11.5,None,0.8,ml,None,None,0.211,23.34,193.1,[45.5        44.59999847 48.40000153],[[1970.]],43:56.9,earthquake_local,TPW.SN_20170702064355_EV
234,OK,FNO,HH,35.25738,-97.40115,360,900,manual,0.5,16.79999924,2108,autopicker,0.85,606950940,57:32.2,1.18,36.1348,-97.2435,0.7674,29.808,3.02703,0.51,None,3.1,mb_lg,None,None,0.89,98.39,188.4,[30.10000038 38.59999847 28.10000038],[[5900.]],3/30/15 5:57,earthquake_local,FNO.OK_20150330055739_EV
235,PB,B072,EH,35.831,-120.345,398,,,,,,,,,,,,,,,,,,,,,,,,,,,10/28/12 0:15,noise,B072.PB_201210280015_NO
236,NC,GDXB,HH,38.807968,-122.795303,939,900,manual,0.77,0.810000002,972,manual,0.64,nc72572885,51:26.2,None,38.82117,-122.8085,None,None,None,3.15,None,0.18,md,None,None,0.01712,1.86,322.1,[21.39999962 22.         18.10000038],[[2088.]],51:18.1,earthquake_local,GDXB.NC_20160102205117_EV
237,II,ABPO,BH,-19.018,47.229,1528,,,,,,,,,,,,,,,,,,,,,,,,,,,1/16/18 13:57,noise,ABPO.II_20180116135754_NO
238,PB,B918,EH,35.9357,-117.6017,1042.6,900,manual,0.6,8.43999958,1510,manual,0.55,ci11391402,07:45.9,None,36.15717,-118.0705,None,None,None,1.66,None,1.5,ml,None,None,0.4395,48.87,300.2,[16.29999924 18.79999924 19.20000076],[[3188.]],07:45.3,earthquake_local,B918.PB_20131114000744_EV
239,EC,SALI,HH,-2.1863,-80.991203,150,,,,,,,,,,,,,,,,,,,,,,,,,,,1/15/18 11:05,noise,SALI.EC_20180115110542_NO
240,NN,LHV,HH,38.2513,-118.5049,2353,800,manual,0.95,7.269249916,1306.035,manual,0.93,nn00573055,47:51.3,None,38.3588,-118.9072,None,None,None,9.2,None,1.4,ml,None,None,0.334,37.16,288.67,[24.70000076 27.         24.        ],[[2295.]],47:50.6,earthquake_local,LHV.NN_20170109074749_EV
241,NC,GDXB,HH,38.807968,-122.795303,939,799,autopicker,0.93,1.25,896,autopicker,0.78,nc71913546,42:26.8,,38.7919998,-122.7328339,0.06,85,0.4,1.52,1.69,0.8,md,NC,None,0.05135,5.71,109,[23.         25.89999962 20.        ],[[1986.]],42:20.1,earthquake_local,GDXB.NC_20130101104219_EV
242,AZ,BZN,HH,33.4915,-116.667,1301,774,autopicker,0.84,13.32999992,1721,autopicker,0.66,ci15088356,14:28.1,,34.1386667,-117.0388333,0.17,42,0.21,3.62,0.32,1.71,ml,CI,None,0.7159,79.61,334.4,[15.60000038 18.5        15.10000038],[[3118.]],14:33.7,earthquake_local,BZN.AZ_20111220221432_EV
243,CA,CBRU,HH,42.284408,2.179001,1327,800,manual,0.5,20.47999954,2232,autopicker,0.57,7149512,26:46.5,0.24,43.0031,1.1334,1.2737,68.958,2.4439,10,None,2.3,ml,None,None,1.05,117.16,132.5,[3.0999999  0.60000002 6.9000001 ],[[3372.]],10/4/03 3:26,earthquake_local,CBRU.CA_20031004032658_EV
244,BK,ELFS,HH,40.61835,-120.72791,1555,,,,,,,,,,,,,,,,,,,,,,,,,,,2/3/06 23:22,noise,ELFS.BK_200602032322_NO
245,AK,KNK,BH,61.4131,-148.4585,598,899.2,autopicker,0.91,15.03899956,2150.2,autopicker,0.6,ak0118twdaec,14:55.1,,62.3079,-148.5034,0.48,,0,28.7,0.1,2,ml,None,None,0.896,99.75,358.53,[34.09999847 31.10000038 34.09999847],[[3104.]],15:01.1,earthquake_local,KNK.AK_20110711221500_EV
246,CI,FHO,HH,34.09355,-116.93588,1614,800,manual,0.62,9.619999886,1549,manual,0.54,ci37271439,00:37.9,None,34.23367,-117.5195,None,None,None,11.58,None,1.67,ml,None,None,0.5037,56.01,286,[6.5        5.69999981 9.10000038],[[3126.]],00:39.5,earthquake_local,FHO.CI_20151111170038_EV
247,SC,JAL,HH,32.20241,-103.22932,1020,,,,,,,,,,,,,,,,,,,,,,,,,,,3/17/20 12:47,noise,JAL.SC_20200317124754_NO
248,CN,HYT,HH,60.8267,-137.5072,1373,,,,,,,,,,,,,,,,,,,,,,,,,,,1/15/18 4:17,noise,HYT.CN_20180115041736_NO
249,PB,B916,EH,36.1925,-117.6685,1859.9,800,manual,0.59,3.359999895,1038,manual,0.55,ci15474249,03:31.2,None,36.106,-117.85517,None,None,None,4.14,None,0.59,ml,None,None,0.174,19.35,240.1,[24.39999962 21.70000076 21.5       ],[[1492.]],03:26.6,earthquake_local,B916.PB_20140309200325_EV
250,SN,TIM,EH,37.0667,-116.4703,1871,600,manual,0.95,12.02188015,1407.658,manual,0,nn00441005,15:48.6,None,36.676,-115.8736,None,None,None,4.4,None,1.05,ml,None,None,0.617,68.63,129.47,[34.09999847 33.20000076 36.5       ],[[2725.]],15:54.6,earthquake_local,TIM.SN_20140314041553_EV
251,TA,N02D,HH,40.974,-122.705,937,,,,,,,,,,,,,,,,,,,,,,,,,,,11/24/12 6:09,noise,N02D.TA_201211240609_NO
252,NC,LBR,HN,41.40942,-122.06776,1601,,,,,,,,,,,,,,,,,,,,,,,,,,,12/9/17 13:58,noise,LBR.NC_201712091358_NO
253,BK,HUMO,HN,42.6071,-122.9567,555,,,,,,,,,,,,,,,,,,,,,,,,,,,5/10/14 3:55,noise,HUMO.BK_201405100355_NO
254,IU,YSS,BH,46.9587,142.7604,150,,,,,,,,,,,,,,,,,,,,,,,,,,,1/15/18 9:49,noise,YSS.IU_20180115094924_NO
255,PB,B046,EH,40.32197,-124.2843,44,400,manual,0.66,13.93999958,1526,manual,0.58,nc72185411,05:44.7,,40.6662,-125.1482,,,None,12.3,8.39,2.45,md,None,None,0.7432,82.61,297.7,[31.60000038 32.70000076 35.20000076],[[2521.]],05:54.7,earthquake_local,B046.PB_20140315050553_EV
256,AK,ISLE,BH,60.6024,-142.3406,1425,798.2,autopicker,0.9,12.75,1856.2,autopicker,0.92,ak19730397,54:30.1,None,60.0366,-141.6365,None,None,None,7.9,None,2,ml,None,None,0.665,74.08,148.67,[31.         26.10000038 34.70000076],[[3113.]],54:34.9,earthquake_local,ISLE.AK_20180608115433_EV
257,PB,B046,EH,40.32197,-124.2843,44,800,manual,0.67,4.710000038,1168,manual,0.53,nc72817611,33:46.2,None,40.41667,-124.37283,None,None,None,22.74,None,1.42,md,None,None,0.1163,12.93,324.5,[29.10000038 28.39999962 25.79999924],[[1646.]],33:42.9,earthquake_local,B046.PB_20170617213341_EV
258,PB,B084,EH,33.61157,-116.45637,1271,599,autopicker,0.94,3.599999905,840,autopicker,0.9,ci14379852,57:41.0,,33.5871667,-116.6065,0.18,61,0.33,14.44,0.51,0.76,ml,CI,None,0.1276,14.19,258.9,[25.60000038 29.         28.79999924],[[1250.]],57:38.6,earthquake_local,B084.PB_20080709185737_EV
259,AK,MDM,BH,64.9602,-148.2319,631,500,manual,0.78,6.499000072,976.4,manual,0.56,ak18812817,57:52.5,None,64.948,-148.961,None,None,None,18,None,0.1,ml,None,None,0.309,34.48,267.41,[11.10000038  5.9000001  14.80000019],[[2905.]],57:54.0,earthquake_local,MDM.AK_20180329035753_EV
260,TA,A07A,BH,49.048,-120.3837,1842,,,,,,,,,,,,,,,,,,,,,,,,,,,1/9/07 3:44,noise,A07A.TA_200701090344_NO
261,NC,GDXB,HH,38.807968,-122.795303,939,901,autopicker,0.93,0.680000007,964,autopicker,0.82,nc72898606,53:35.9,None,38.82,-122.80334,None,None,None,2.23,None,0.88,md,None,None,0.01355,1.51,332,[35.40000153 29.89999962 29.70000076],[[2054.]],53:27.5,earthquake_local,GDXB.NC_20170925105326_EV
262,PB,B075,EH,35.9292,-120.5153,583,700,manual,0.7,1.870000005,844,manual,0.54,nc72795606,12:12.4,None,35.95917,-120.52,None,None,None,9.25,None,0.79,md,None,None,0.03015,3.35,352.8,[24.89999962 25.89999962 19.39999962],[[1303.]],12:07.3,earthquake_local,B075.PB_20170429141206_EV
