,network_code,receiver_code,receiver_type,receiver_latitude,receiver_longitude,receiver_elevation_m,p_arrival_sample,p_status,p_weight,p_travel_sec,s_arrival_sample,s_status,s_weight,source_id,source_origin_time,source_origin_uncertainty_sec,source_latitude,source_longitude,source_error_sec,source_gap_deg,source_horizontal_uncertainty_km,source_depth_km,source_depth_uncertainty_km,source_magnitude,source_magnitude_type,source_magnitude_author,source_mechanism_strike_dip_rake,source_distance_deg,source_distance_km,back_azimuth_deg,snr_db,coda_end_sample,trace_start_time,trace_category,trace_name
618,SN,TIM,EH,37.0667,-116.4703,1871,900,manual,0.95,9.131270409,1507.92,manual,0.93,nn00431658,45:51.8,,36.8254,-115.9915,0.1519,167.12,0,8.8,2.1,0,ml,NN,None,0.453,50.36,122.38,[14.10000038 14.         14.        ],[[3199.]],45:52.0,earthquake_local,TIM.SN_20131218064550_EV
619,BK,SAO,HH,36.76403,-121.44722,317.2,700,manual,0.68,8.149999619,1303,manual,0.52,nc72160436,19:00.5,None,36.67817,-121.936,None,None,None,6.35,None,1.54,md,None,None,0.4018,44.69,257.6,[22.70000076 21.60000038 21.        ],[[2394.]],19:01.6,earthquake_local,SAO.BK_20140209071900_EV
620,NC,GDXB,HH,38.807968,-122.795303,939,898,autopicker,0.92,0.589999974,956,autopicker,0.49,nc72013185,08:33.0,None,38.83533,-122.807,None,None,None,0.16,None,0.6,md,None,None,0.02883,3.2,341,[18.39999962 18.         19.60000038],[[2028.]],08:24.6,earthquake_local,GDXB.NC_20130622090823_EV
621,HV,UWE,HH,19.420972,-155.291162,1252,500,manual,0.61,1.379999995,598,manual,0.57,hv60934466,32:26.1,None,19.39267,-155.27867,None,None,None,2.7,None,1.88,ml,None,None,0.03053,3.4,157.4,[30.39999962 33.59999847 34.59999847],[[1392.]],32:22.5,earthquake_local,UWE.HV_20150515163221_EV
622,NN,OMMB,HH,37.6131,-119.0005,2768,900,manual,0.56,3.180000067,1136,autopicker,0.59,nc72957751,52:52.4,None,37.54267,-118.83867,None,None,None,4.42,None,0.71,md,None,None,0.1465,16.29,118.8,[14.39999962  9.10000038  9.39999962],[[2744.]],52:46.6,earthquake_local,OMMB.NN_20180124005245_EV
623,AV,AU22,BH,59.3702,-153.3573,105,,,,,,,,,,,,,,,,,,,,,,,,,,,7/14/14 13:09,noise,AU22.AV_201407141309_NO
624,AK,CTG,BH,60.9649,-141.3401,1507.9,696.2,autopicker,0.92,11.04300022,1507.2,autopicker,0.73,ak0119kcylpc,13:43.7,,60.4269,-141.2328,0.74,,0,6.7,0,1.6,ml,None,None,0.541,60.23,174.58,[18.70000076 30.70000076 26.10000038],[[2539.]],13:47.8,earthquake_local,CTG.AK_20110727221346_EV
625,PB,B082,HH,33.598182,-116.596005,1374.8,699,autopicker,0.94,2.940000057,907,autopicker,0.88,ci15395881,45:03.5,None,33.50733,-116.4675,None,None,None,9.45,None,0.4,ml,None,None,0.1404,15.62,130.3,[22.5        22.5        21.10000038],[[1369.]],44:59.4,earthquake_local,B082.PB_20130823124458_EV
626,KO,BALB,HH,39.639999,27.879999,120,,,,,,,,,,,,,,,,,,,,,,,,,,,1/15/18 12:17,noise,BALB.KO_20180115121748_NO
627,BK,DANT,HH,40.2946,-121.8021,967,,,,,,,,,,,,,,,,,,,,,,,,,,,4/18/18 15:28,noise,DANT.BK_201804181528_NO
628,NC,GRT,HN,38.93867,-122.6711,590,,,,,,,,,,,,,,,,,,,,,,,,,,,2/9/18 11:06,noise,GRT.NC_201802091106_NO
629,NC,GDXB,HH,38.807968,-122.795303,939,400,manual,0.61,0.540000021,453,manual,0.55,nc71020250,45:04.7,,38.8151667,-122.7918333,0.03,127,0.45,2.71,0.6,0.93,md,NC,None,0.00811,0.85,17,[38.40000153 40.20000076 37.29999924],[[1012.]],45:01.2,earthquake_local,GDXB.NC_20070327204500_EV
630,CI,BLC,HH,34.24356,-118.67312,607,900,manual,0.62,14.97999954,1909,manual,0.56,ci38161408,05:03.4,None,33.658,-118.03717,None,None,None,15.08,None,1.34,ml,None,None,0.7878,87.6,138.2,[11.80000019  5.69999981  4.5999999 ],[[3199.]],05:09.4,earthquake_local,BLC.CI_20180501050508_EV
631,UW,OFR,BH,47.93313,-124.39604,152,900,manual,0.95,7.579999924,1578,manual,0.93,uw10737593,53:07.2,,47.6141667,-124.7241667,0.52,254,5.14,24.86,5.75,1.6,md,UW,None,0.3884,43.16,214.5,[17.39999962 18.20000076  9.5       ],[[2544.]],53:05.7,earthquake_local,OFR.UW_20071224045304_EV
632,PB,B082,HH,33.598182,-116.596005,1374.8,700,manual,0.63,2.940000057,914,manual,0.63,ci11409130,08:22.2,None,33.5045,-116.471,None,None,None,9.09,None,0.9,mh,None,None,0.1401,15.58,132,[14.30000019 12.69999981 13.89999962],[[1479.]],08:18.2,earthquake_local,B082.PB_20140102100817_EV
633,CI,SLH,HH,33.19269,-116.25399,208,799,autopicker,0.93,3.099999905,1057,autopicker,0.52,ci37671200,59:29.2,None,33.24917,-116.4085,None,None,None,4.77,None,1.37,ml,None,None,0.1412,15.71,293.6,[26.79999924 27.70000076 27.39999962],[[2630.]],59:24.3,earthquake_local,SLH.CI_20160825065923_EV
634,AK,KNK,BH,61.4131,-148.4585,598,600,manual,0.46,16.34399986,2032.2,manual,0.57,ak012brie5gv,08:58.1,,62.1881,-149.7081,0.49,,0,43,0.8,1.3,ml,None,None,0.974,108.64,322.14,[15.69999981 17.39999962 15.19999981],[[3199.]],09:08.4,earthquake_local,KNK.AK_20120912080907_EV
635,AK,RC01,BH,61.0889,-149.739,390,400,manual,0.95,7.111000061,1038.9,manual,1,ak15643380,57:19.7,None,61.3376,-149.8268,None,None,None,40,None,1.2,ml,None,None,0.252,28.11,350.31,[41.79999924 34.20000076 28.70000076],[[1558.]],57:22.8,earthquake_local,RC01.AK_20170327155721_EV
636,AK,PWL,BH,60.8584,-148.3334,550,800,manual,0.88,15.09500027,2111.5,manual,0.74,ak17476638,50:40.5,None,61.4634,-149.6972,None,None,None,28.2,None,1.7,ml,None,None,0.894,99.67,312.01,[14.10000038 15.60000038 16.79999924],[[3199.]],50:47.6,earthquake_local,PWL.AK_20171205155046_EV
637,NC,GDXB,HH,38.807968,-122.795303,939,401,autopicker,0.93,0.810000002,473,autopicker,0.83,nc71813666,52:44.0,,38.8136673,-122.7898331,0.04,71,0.46,3.38,0.88,0.43,md,NC,None,0.00721,0.79,38,[31.20000076 24.39999962 31.5       ],[[1090.]],52:40.8,earthquake_local,GDXB.NC_20120709095239_EV
638,NN,SHP,HH,36.5055,-115.1602,1626,,,,,,,,,,,,,,,,,,,,,,,,,,,2/21/15 19:43,noise,SHP.NN_201502211943_NO
639,TX,ALPN,HH,30.374479,-103.638519,1368,,,,,,,,,,,,,,,,,,,,,,,,,,,3/16/20 13:55,noise,ALPN.TX_20200316135548_NO
640,NC,NTAB,HN,37.92307,-122.59829,733,,,,,,,,,,,,,,,,,,,,,,,,,,,9/29/02 16:40,noise,NTAB.NC_200209291640_NO
641,KR,KDJ,BH,42.12722,77.194443,1830,600,manual,0.5,35.11000061,3050,manual,0.5,602373815,49:10.2,1.3,42.5276,79.6212,1.5926,210.001,9.56028,10,None,2.4,mb,None,None,1.85,204.9,258.4,[13.19999981 13.69999981  8.30000019],[[5900.]],49:39.3,earthquake_local,KDJ.KR_20130128224938_EV
642,BK,PKD,HH,35.94517,-120.5416,583,500,manual,0.56,2.130000114,708,autopicker,0.94,nc71908956,43:07.7,,36.0213333,-120.5748333,0.07,130,0.45,4.15,0.75,0.65,md,NC,None,0.08108,8.97,340.6,[ 8.80000019  7.69999981 13.30000019],[[1832.]],43:04.8,earthquake_local,PKD.BK_20121223004303_EV
643,TA,L02D,HN,42.1578,-123.6031,458,,,,,,,,,,,,,,,,,,,,,,,,,,,3/22/12 7:43,noise,L02D.TA_201203220743_NO
644,GL,AMC,HH,16.04768,-61.665901,1346,,,,,,,,,,,,,,,,,,,,,,,,,,,1/15/18 16:15,noise,AMC.GL_20180115161506_NO
645,PB,B081,HH,33.711167,-116.714167,1467,500,manual,0.58,5.260000229,871,manual,0.58,ci37216584,10:22.2,None,33.48533,-116.521,None,None,None,10.7,None,0.88,ml,None,None,0.277,30.8,144.6,[30.89999962 27.60000038 26.79999924],[[1409.]],10:22.4,earthquake_local,B081.PB_20140424151021_EV
646,PB,B203,EH,46.169,-122.333667,814.4,400,manual,1,13.82999992,1478,manual,1,uw60427342,51:14.4,,46.8436667,-122.3428333,0.25,100,0.87,61.63,1.69,1.51,md,UW,None,0.6749,75,359.5,[17.70000076 16.39999962 15.60000038],[[3199.]],51:24.2,earthquake_local,B203.PB_20120716155123_EV
647,NC,GDXB,HH,38.807968,-122.795303,939,599,autopicker,0.93,1.110000014,688,autopicker,0.55,nc72057021,04:40.0,None,38.839,-122.83833,None,None,None,1.8,None,1.3,md,None,None,0.04595,5.08,312,[38.09999847 35.5        36.79999924],[[1554.]],04:35.1,earthquake_local,GDXB.NC_20130826210434_EV
648,NC,JGR,HN,37.51604,-122.45815,282,,,,,,,,,,,,,,,,,,,,,,,,,,,7/4/13 4:24,noise,JGR.NC_201307040424_NO
649,PB,B093,EH,33.59369,-116.7641,1229.6,500,manual,0.58,5.300000191,856,manual,0.58,ci15357561,37:18.3,None,33.513,-116.4665,None,None,None,9.21,None,0.8,ml,None,None,0.2612,29.05,108.1,[28.10000038 28.20000076 23.39999962],[[1390.]],37:18.6,earthquake_local,B093.PB_20130609143717_EV
650,KZ,BAL1,SH,50.1272,78.8974,320,836.3,autopicker,0.53,7.849999905,1824.3,autopicker,0.52,12695846,01:02.9,1.12,50.1269,79.5846,1.07,133,None,0,None,2.5,mb,None,None,0.4427,49.14,89.7753,[18.20000076 19.89999962 17.29999924],[[3199.]],01:02.4,earthquake_local,BAL1.KZ_20080929070101_EV
651,PB,B087,EH,33.4955,-116.602667,1139,800,manual,0.58,14.27000046,1853,manual,0.58,ci15191105,44:56.4,,34.2016667,-117.0025,0.13,37,0.17,8.72,0.47,1.6,ml,CI,None,0.779,86.63,334.7,[21.70000076 19.79999924 16.70000076],[[2790.]],45:02.6,earthquake_local,B087.PB_20120811234501_EV
652,NC,BSG,HN,36.41385,-121.25515,161,,,,,,,,,,,,,,,,,,,,,,,,,,,1/3/17 2:54,noise,BSG.NC_201701030254_NO
653,NC,GDXB,HH,38.807968,-122.795303,939,501,autopicker,0.93,0.810000002,573,autopicker,0.87,nc72172806,40:50.5,None,38.83717,-122.80383,None,None,None,1.6,None,1.09,md,None,None,0.02973,3.33,347,[38.90000153 42.         40.70000076],[[1290.]],40:46.3,earthquake_local,GDXB.NC_20140222084045_EV
654,NC,GAXB,HN,38.71073,-122.75733,386,,,,,,,,,,,,,,,,,,,,,,,,,,,7/6/11 14:30,noise,GAXB.NC_201107061430_NO
655,NC,CMW,HH,37.54053,-121.88735,369,,,,,,,,,,,,,,,,,,,,,,,,,,,12/27/16 14:26,noise,CMW.NC_201612271426_NO
656,C,GO10,BH,-53.154598,-71.049797,652,,,,,,,,,,,,,,,,,,,,,,,,,,,1/15/18 8:32,noise,GO10.C_20180115083224_NO
657,HP,EFP,HH,38.4269,21.9058,107,800,manual,0.5,12.32999992,1800,manual,0.5,12951201,55:31.4,0.4,37.8547,21.4394,1.0462,130.114,3.3828,3.61,None,3,ml,None,None,0.68,75.54,32.6,[38.29999924 40.5        36.59999847],[[3280.]],55:35.7,earthquake_local,EFP.HP_20080711145534_EV
658,7F,ARK2,EH,35.334099,-92.298203,212,,,,,,,,,,,,,,,,,,,,,,,,,,,7/31/10 2:28,noise,ARK2.7F_20100731022824_NO
659,NC,GDXB,HH,38.807968,-122.795303,939,600,manual,0.64,0.819999993,671,manual,0.53,nc72492141,59:19.2,None,38.83083,-122.7705,None,None,None,1.44,None,1.6,md,None,None,0.02973,3.33,40.2,[55.79999924 55.5        53.79999924],[[1484.]],59:14.0,earthquake_local,GDXB.NC_20150723035912_EV
660,NC,GDXB,HH,38.807968,-122.795303,939,797,autopicker,0.91,0.959999979,877,autopicker,0.74,nc71718046,36:04.6,,38.836834,-122.8288345,0.06,57,0.31,1.62,0.48,0.84,md,NC,None,0.03964,4.33,317,[31.10000038 30.39999962 28.60000038],[[1914.]],35:57.6,earthquake_local,GDXB.NC_20120116023556_EV
661,BK,SCZ,HH,36.598,-121.403,261,500,manual,0.65,3.549999952,797,manual,0.51,nc72507996,38:25.7,None,36.6885,-121.22433,None,None,None,9.29,None,1.45,md,None,None,0.1703,18.87,57.8,[30.10000038 34.20000076 32.20000076],[[1453.]],38:24.2,earthquake_local,SCZ.BK_20150818093823_EV
662,LD,BRNY,HH,41.414036,-74.011889,248,,,,,,,,,,,,,,,,,,,,,,,,,,,1/15/18 13:14,noise,BRNY.LD_20180115131430_NO
663,AV,AUL,BH,59.3823,-153.4357,360,397,autopicker,0.91,13.30500031,1464,autopicker,0.63,ak16363066,47:19.1,,59.1665,-152.1794,0.29,,0,60.3,0.6,1.5,ml,None,None,0.678,75.56,109.04,[25.         28.79999924 13.5       ],[[2908.]],47:28.4,earthquake_local,AUL.AV_20170722184727_EV
664,PO,ACTO,HH,43.6087,-80.0624,360,,,,,,,,,,,,,,,,,,,,,,,,,,,4/20/11 12:36,noise,ACTO.PO_201104201236_NO
665,NN,REDF,HN,39.39,-119.7647,1466,,,,,,,,,,,,,,,,,,,,,,,,,,,11/29/17 8:54,noise,REDF.NN_201711290854_NO
666,NC,AFD,HH,38.945961,-120.968971,505,400,manual,0.6,12.80000019,1408,autopicker,0.57,nc72822871,24:37.7,None,39.46717,-120.331,None,None,None,1.53,None,2.5,ml,None,None,0.7187,79.9,43.7,[47.09999847 49.79999924 45.59999847],[[2469.]],24:46.5,earthquake_local,AFD.NC_20170628162445_EV
667,PR,HUMP,BH,18.142069,-65.84885,79.1,800,manual,0.23,24.34000015,2725,manual,0,pr2018061000,00:22.1,None,19.6521,-66.2658,None,None,None,39,None,3.8,md,None,None,1.5636,173.56,345,[45.40000153 46.09999847 42.20000076],[[5999.]],00:38.5,earthquake_local,HUMP.PR_20180302040038_EV
668,TX,PB27,HH,31.576319,-103.130707,812.3,,,,,,,,,,,,,,,,,,,,,,,,,,,3/19/20 3:52,noise,PB27.TX_20200319035224_NO
669,KY,CUSSO,HH,36.552237,-89.329702,91,800,manual,0.62,3.609999895,1082,manual,0.62,nm60211181,09:21.4,None,36.72533,-89.36783,None,None,None,6.75,None,2.25,md,None,None,0.1755,19.51,350,[14.30000019 12.89999962  8.60000038],[[2728.]],09:17.0,earthquake_local,CUSSO.KY_20171119040915_EV
670,PB,B203,EH,46.169,-122.333667,814.4,600,manual,0.61,2.359999895,788,manual,0.61,uw61219892,33:39.3,None,46.19417,-122.19033,None,None,None,4.73,None,0.09,ml,None,None,0.1027,11.42,75.8,[ 8.19999981 10.69999981  7.0999999 ],[[1952.]],33:35.6,earthquake_local,B203.PB_20161125233334_EV
671,NN,LHV,HH,38.2513,-118.5049,2353,800,manual,0.95,5.51429987,1226.867,manual,0.93,nn00495027,19:52.8,None,38.0098,-118.3931,None,None,None,12.2,None,0.87,ml,None,None,0.257,28.54,160.03,[21.79999924 26.5        27.10000038],[[2034.]],19:50.3,earthquake_local,LHV.NN_20150520011949_EV
672,YC,IP04,HH,38.0922,-78.0942,166,700,manual,0.58,3.859999895,944,autopicker,0.83,se609678,00:54.1,0,37.91,-77.996,,69,None,6.3,1.2,2.5,md,None,None,0.1974,21.95,157,[43.90000153 48.5        45.20000076],[[1621.]],00:51.0,earthquake_local,IP04.YC_20120403190049_EV
673,NC,LDL,HH,41.38136,-122.29369,1705,,,,,,,,,,,,,,,,,,,,,,,,,,,4/19/18 1:57,noise,LDL.NC_201804190157_NO
674,HL,RDO,SH,41.14503,25.53553,116,700,manual,0.5,11.02000046,1430,manual,0.5,9496814,35:00.6,0.36,41.6889,25.4648,1.0348,33.6,3.6165,0.77,None,3.6,ml,None,None,0.55,60.69,174.2,[42.5        46.         41.79999924],[[3700.]],35:04.6,earthquake_local,RDO.HL_20060224133503_EV
675,HV,MLOD,HH,19.493172,-155.386023,2063,600,manual,0.63,1.899999976,752,manual,0,hv60928206,01:03.8,None,19.49,-155.44483,None,None,None,3.65,None,1.09,md,None,None,0.05557,6.18,266.7,[42.         41.70000076 41.        ],[[1332.]],00:59.7,earthquake_local,MLOD.HV_20150513050058_EV
676,NC,JSJ,HN,37.33378,-122.09231,92,,,,,,,,,,,,,,,,,,,,,,,,,,,3/1/17 12:37,noise,JSJ.NC_201703011237_NO
677,NC,GDXB,HH,38.807968,-122.795303,939,497,autopicker,0.88,0.889999986,562,autopicker,0.8,nc72153396,45:31.0,,38.8296661,-122.8071671,0.01,143,1.42,3.33,2.91,0.56,md,NC,None,0.02342,2.62,336,[23.79999924 20.89999962 18.        ],[[1254.]],45:26.9,earthquake_local,GDXB.NC_20140201014525_EV
678,NC,GDXB,HH,38.807968,-122.795303,939,400,manual,0.6,0.75999999,471,autopicker,0.84,nc40194447,41:30.2,,38.8185,-122.795,0.03,82,0.23,3.73,0.66,1.27,md,NC,None,0.01081,1.17,358.9,[55.40000153 43.5        47.20000076],[[1084.]],41:26.9,earthquake_local,GDXB.NC_20070311194125_EV
679,AK,SAW,BH,61.807,-148.3316,781,698.2,autopicker,0.92,7.078999996,1327.2,autopicker,0.76,ak16807505,21:49.5,None,61.531,-147.9046,None,None,None,28.4,None,1.3,ml,None,None,0.342,38.18,143.9,[28.79999924 30.5        23.70000076],[[2054.]],21:49.6,earthquake_local,SAW.AK_20170911022148_EV
680,PB,B082,HH,33.598182,-116.596005,1374.8,773,autopicker,0.58,11.09000015,1520,autopicker,0.75,ci37238967,33:56.2,None,33.9355,-117.19783,None,None,None,13.18,None,1.83,ml,None,None,0.6038,67.14,303.8,[25.29999924 27.10000038 26.10000038],[[2563.]],33:59.5,earthquake_local,B082.PB_20150907193358_EV
681,CI,SOF,HH,33.37055,-117.5574,10,,,,,,,,,,,,,,,,,,,,,,,,,,,9/20/14 15:05,noise,SOF.CI_201409201505_NO
682,PB,B082,EH,33.598182,-116.596005,1374.8,900,manual,0.54,6.460000038,1340,manual,0.58,ci15223001,58:23.7,,33.8206667,-116.9086667,0.26,189,0.66,4.66,None,0.48,ml,CI,None,0.3423,38.07,310.5,[ 9.60000038 12.30000019  9.10000038],[[3199.]],58:21.2,earthquake_local,B082.PB_20121001075820_EV
683,II,OBN,BH,55.1146,36.5674,160,,,,,,,,,,,,,,,,,,,,,,,,,,,1/15/18 13:35,noise,OBN.II_20180115133530_NO
684,CN,KILO,HH,48.4972,-79.7232,314,,,,,,,,,,,,,,,,,,,,,,,,,,,1/15/18 12:12,noise,KILO.CN_20180115121216_NO
685,AZ,BZN,HH,33.4915,-116.667,1301,900,manual,0.62,12.63000011,1753,manual,0.56,ci37229359,20:41.9,None,34.0165,-117.1695,None,None,None,15.83,None,1.39,ml,None,None,0.6704,74.56,321.3,[ 8.19999981 11.80000019  6.9000001 ],[[3199.]],20:45.6,earthquake_local,BZN.AZ_20150818112044_EV
686,CI,DNR,HH,33.56667,-116.63056,1274,500,manual,0.58,4.050000191,849,autopicker,0.77,ci15225633,24:24.1,,33.6966667,-116.8026667,0.14,70,0.23,1.65,1.06,0.77,ml,CI,None,0.1996,21.52,311.7,[24.         32.20000076 27.29999924],[[1554.]],24:23.2,earthquake_local,DNR.CI_20121006102422_EV
687,PB,B082,HH,33.598182,-116.596005,1374.8,500,manual,0.63,9.350000381,1176,manual,0.56,ci37217535,33:20.2,None,34.027,-116.8945,None,None,None,15.46,None,0.79,ml,None,None,0.4947,55.01,329.9,[15.         16.29999924 12.89999962],[[3199.]],33:24.5,earthquake_local,B082.PB_20150801023323_EV
688,TX,PB15,HH,31.211399,-103.084389,825,,,,,,,,,,,,,,,,,,,,,,,,,,,3/17/20 10:20,noise,PB15.TX_20200317102012_NO
689,AK,UNV,BH,53.8452,-166.5045,65,400,manual,0.89,13.06999969,1282.8,manual,0.93,ak17026629,23:24.3,,53.4666,-167.3676,0.67,,0,13.2,1,1.5,ml,None,None,0.636,70.94,233.15,[16.70000076 10.19999981  8.30000019],[[3021.]],23:33.3,earthquake_local,UNV.AK_20171011042332_EV
690,TX,PB15,HH,31.211399,-103.084389,825,,,,,,,,,,,,,,,,,,,,,,,,,,,3/15/20 9:26,noise,PB15.TX_20200315092618_NO
691,C1,TA01,HH,-20.5656,-70.1807,75,,,,,,,,,,,,,,,,,,,,,,,,,,,1/15/18 0:46,noise,TA01.C1_20180115004654_NO
692,KZ,ABKAR,BH,49.2556,59.9431,243,,,,,,,,,,,,,,,,,,,,,,,,,,,11/26/09 21:56,noise,ABKAR.KZ_200911262156_NO
693,GB,ESK,HH,55.316502,-3.2052,258,,,,,,,,,,,,,,,,,,,,,,,,,,,1/15/18 10:09,noise,ESK.GB_20180115100900_NO
694,TX,PB11,HH,31.93553,-104.034119,915,,,,,,,,,,,,,,,,,,,,,,,,,,,3/15/20 10:11,noise,PB11.TX_20200315101148_NO
695,SN,TYM,EH,37.144,-116.7217,1457,900,manual,0.95,10.02068996,1617.538,manual,0.93,nn00505861,13:33.2,None,37.1917,-117.3611,None,None,None,10,None,0.13,ml,None,None,0.512,57.03,275.15,[16.29999924 18.5        16.79999924],[[2854.]],13:34.3,earthquake_local,TYM.SN_20150809231333_EV
696,BK,SHEP,HN,41.7826,-121.8393,1391,,,,,,,,,,,,,,,,,,,,,,,,,,,10/15/17 18:47,noise,SHEP.BK_201710151847_NO
697,PB,B082,HH,33.598182,-116.596005,1374.8,900,manual,0.67,4.150000095,1182,manual,0.56,ci37844255,06:38.1,None,33.44083,-116.4375,None,None,None,9.37,None,0.57,ml,None,None,0.2053,22.83,140,[18.         17.70000076 18.39999962],[[1834.]],06:33.2,earthquake_local,B082.PB_20180101010632_EV
698,BK,PETY,HN,40.1766,-122.7884,965,,,,,,,,,,,,,,,,,,,,,,,,,,,8/2/18 18:24,noise,PETY.BK_201808021824_NO
699,CI,IRM,HH,34.157379,-115.145126,567,,,,,,,,,,,,,,,,,,,,,,,,,,,1/15/18 9:38,noise,IRM.CI_20180115093854_NO
700,AK,PPD,BH,65.5174,-145.5246,1505,600.2,autopicker,0.93,6.81400013,1066.2,autopicker,0.84,ak14720802,22:19.3,None,65.4189,-144.7092,None,None,None,2.3,None,0.9,ml,None,None,0.353,39.36,106.6,[30.10000038 32.79999924 23.20000076],[[1685.]],22:20.1,earthquake_local,PPD.AK_20161213132219_EV
701,AK,FYU,BH,66.565697,-145.234207,137,,,,,,,,,,,,,,,,,,,,,,,,,,,1/15/18 10:20,noise,FYU.AK_20180115102054_NO
702,7F,ARK1,EH,35.266602,-92.403503,176,,,,,,,,,,,,,,,,,,,,,,,,,,,7/25/10 1:14,noise,ARK1.7F_20100725011454_NO
703,7F,ARK1,EH,35.266602,-92.403503,176,,,,,,,,,,,,,,,,,,,,,,,,,,,7/26/10 18:02,noise,ARK1.7F_20100726180254_NO
704,NN,SRV2,HH,39.6533,-120.3432,1700,,,,,,,,,,,,,,,,,,,,,,,,,,,9/6/12 13:19,noise,SRV2.NN_201209061319_NO
705,NC,GDXB,HH,38.807968,-122.795303,939,497,autopicker,0.92,0.74000001,563,autopicker,0.89,nc71671646,40:36.6,,38.8261681,-122.7955017,0.06,90,0.55,2.74,1.36,0.43,md,NC,None,0.01802,2.02,358,[32.70000076 28.39999962 30.29999924],[[1258.]],40:32.4,earthquake_local,GDXB.NC_20111028034031_EV
706,HV,DESD,EH,19.333395,-155.38565,836,1000,manual,0.09,10.38000011,1754,manual,0.09,hv70065071,02:32.7,None,19.9208,-155.4663,None,None,None,33.4,None,2.9,ml,None,None,0.5893,65.41,352.6,[29.10000038 28.79999924 11.89999962],[[2664.]],02:33.0,earthquake_local,DESD.HV_20180329140233_EV
707,AK,SAW,BH,61.807,-148.3316,781,800,manual,0.69,10.64099979,1669.5,manual,0.74,ak0123ym236w,24:59.9,,62.2903,-148.7712,0.58,,0,8.7,0.1,1.2,ml,None,None,0.525,58.57,336.72,[14.39999962 16.20000076 21.        ],[[3199.]],25:02.6,earthquake_local,SAW.AK_20120326232501_EV
